{"type":"FeatureCollection","features":[{"type":"Feature","properties":{"name":"Aliguay","pcode":"PH0907201001"},"geometry":{"type":"Polygon","coordinates":[[[123.224975,8.749705],[123.224331,8.749804],[123.223544,8.749771],[123.222912,8.749486],[123.222224,8.749036],[123.221547,8.748839],[123.22086,8.74885],[123.220471,8.748762],[123.220183,8.748521],[123.219906,8.74851],[123.219484,8.748642],[123.219451,8.748554],[123.219196,8.748499],[123.219174,8.748368],[123.218941,8.748105],[123.218297,8.747502],[123.217776,8.74634],[123.217809,8.745824],[123.217954,8.745583],[123.217887,8.744509],[123.21822,8.743742],[123.219318,8.742689],[123.219806,8.742349],[123.220516,8.742163],[123.221048,8.742185],[123.223122,8.742908],[123.224032,8.74259],[123.224731,8.742711],[123.225806,8.743182],[123.226583,8.743829],[123.227781,8.745013],[123.228158,8.745671],[123.228125,8.746581],[123.227825,8.747436],[123.227548,8.747918],[123.226649,8.749102],[123.225474,8.749639],[123.224975,8.749705]]]}},{"type":"Feature","properties":{"name":"Antipolo","pcode":"PH0907201002"},"geometry":{"type":"Polygon","coordinates":[[[123.405536,8.618758],[123.403641,8.620419],[123.396695,8.619256],[123.399444,8.615876],[123.395939,8.614489],[123.393093,8.611132],[123.390885,8.605472],[123.390539,8.601319],[123.392552,8.597769],[123.392189,8.587962],[123.400411,8.587831],[123.40286,8.589699],[123.407706,8.593654],[123.408692,8.593953],[123.40537,8.597578],[123.409466,8.60167],[123.411911,8.606113],[123.409855,8.615435],[123.408031,8.616991],[123.405536,8.618758]]]}},{"type":"Feature","properties":{"name":"Aseniero","pcode":"PH0907201003"},"geometry":{"type":"Polygon","coordinates":[[[123.477146,8.493409],[123.475592,8.494767],[123.474057,8.493671],[123.473668,8.493044],[123.472971,8.492665],[123.472055,8.492894],[123.471218,8.492914],[123.470342,8.492436],[123.456189,8.490343],[123.460416,8.482118],[123.464466,8.476978],[123.465386,8.475687],[123.465515,8.475396],[123.466177,8.474573],[123.466455,8.473197],[123.466486,8.472699],[123.466724,8.472355],[123.466642,8.472239],[123.466685,8.472161],[123.46714,8.472006],[123.467557,8.471436],[123.467574,8.471253],[123.467679,8.47113],[123.467819,8.471034],[123.468107,8.470999],[123.468448,8.470483],[123.468641,8.469924],[123.470742,8.466214],[123.472669,8.463207],[123.474605,8.463427],[123.477778,8.462324],[123.483269,8.462848],[123.488346,8.463869],[123.490554,8.465028],[123.491906,8.466821],[123.49419,8.467693],[123.496412,8.467985],[123.502702,8.466274],[123.499234,8.470784],[123.497902,8.471511],[123.499476,8.472722],[123.500365,8.47244],[123.50655,8.476347],[123.50514,8.47888],[123.503963,8.482584],[123.504145,8.483947],[123.502782,8.483947],[123.503327,8.486037],[123.504593,8.486608],[123.505913,8.487692],[123.506172,8.489894],[123.499161,8.489386],[123.497909,8.488776],[123.497553,8.488806],[123.497166,8.489173],[123.495955,8.489539],[123.494388,8.489651],[123.49165,8.489559],[123.490357,8.489315],[123.489822,8.489288],[123.481468,8.492079],[123.479678,8.492283],[123.477146,8.493409]]]}},{"type":"Feature","properties":{"name":"Ba-ao","pcode":"PH0907201004"},"geometry":{"type":"Polygon","coordinates":[[[123.473652,8.542596],[123.458737,8.571232],[123.448004,8.565381],[123.452024,8.536963],[123.452528,8.537426],[123.4528,8.538201],[123.45314,8.538462],[123.453616,8.538066],[123.453866,8.537526],[123.454576,8.53729],[123.45549,8.5373],[123.455961,8.537531],[123.456239,8.538054],[123.45641,8.538708],[123.456977,8.539068],[123.457796,8.538847],[123.458323,8.538233],[123.458304,8.537505],[123.45839,8.536734],[123.458623,8.536297],[123.45927,8.536265],[123.45968,8.535754],[123.459973,8.535522],[123.460858,8.535937],[123.461457,8.535925],[123.461983,8.535371],[123.462305,8.534492],[123.462169,8.533738],[123.463141,8.533996],[123.46448,8.53362],[123.465934,8.53371],[123.466214,8.534127],[123.466959,8.534839],[123.468374,8.535917],[123.469312,8.536768],[123.47066,8.536921],[123.471844,8.536814],[123.473013,8.537953],[123.473569,8.538929],[123.474572,8.539565],[123.475217,8.539859],[123.473652,8.542596]]]}},{"type":"Feature","properties":{"name":"Banbanan","pcode":"PH0907201005"},"geometry":{"type":"Polygon","coordinates":[[[123.416107,8.721421],[123.415935,8.721331],[123.41606,8.721054],[123.415967,8.721089],[123.415904,8.720973],[123.415728,8.721002],[123.415642,8.72088],[123.415573,8.721049],[123.415457,8.720955],[123.415612,8.720636],[123.415589,8.720441],[123.415502,8.720499],[123.415423,8.720373],[123.415225,8.720563],[123.415169,8.720462],[123.415072,8.720465],[123.414973,8.720633],[123.414768,8.720393],[123.414659,8.720376],[123.414621,8.720498],[123.414465,8.720241],[123.413622,8.71955],[123.399726,8.71513],[123.409723,8.705776],[123.415423,8.700996],[123.427404,8.705984],[123.430236,8.716239],[123.430369,8.717236],[123.430009,8.717368],[123.429555,8.717691],[123.429621,8.717768],[123.42957,8.717838],[123.429467,8.717857],[123.429392,8.717763],[123.428588,8.718043],[123.42847,8.718189],[123.428578,8.718334],[123.428362,8.718339],[123.428179,8.718524],[123.427594,8.718637],[123.426947,8.718507],[123.426665,8.718524],[123.426466,8.718774],[123.426539,8.718927],[123.426407,8.718999],[123.425898,8.718961],[123.425827,8.718754],[123.425035,8.718756],[123.424013,8.719063],[123.423837,8.719053],[123.42356,8.719156],[123.423404,8.719329],[123.423288,8.719344],[123.423122,8.719236],[123.422494,8.719294],[123.42244,8.719465],[123.422148,8.719588],[123.421782,8.71954],[123.421277,8.719751],[123.420602,8.719831],[123.420336,8.719946],[123.419224,8.720067],[123.419041,8.720274],[123.418766,8.720341],[123.418365,8.720327],[123.418079,8.72009],[123.41793,8.719826],[123.41742,8.72001],[123.417459,8.720705],[123.417227,8.72106],[123.417022,8.721161],[123.416675,8.721041],[123.416503,8.721229],[123.416263,8.721337],[123.416086,8.721326],[123.416107,8.721421]]]}},{"type":"Feature","properties":{"name":"Barcelona","pcode":"PH0907201006"},"geometry":{"type":"Polygon","coordinates":[[[123.442059,8.539874],[123.431324,8.541044],[123.431184,8.540514],[123.430169,8.531746],[123.445281,8.506529],[123.459354,8.517767],[123.472336,8.518425],[123.468243,8.523646],[123.46518,8.528025],[123.464035,8.528921],[123.463141,8.531131],[123.462615,8.53148],[123.461803,8.531813],[123.461584,8.532252],[123.461958,8.532881],[123.462305,8.534492],[123.461983,8.535371],[123.461457,8.535925],[123.460858,8.535937],[123.459973,8.535522],[123.45968,8.535754],[123.45927,8.536265],[123.458623,8.536297],[123.45839,8.536734],[123.458304,8.537505],[123.458323,8.538233],[123.457796,8.538847],[123.456977,8.539068],[123.45641,8.538708],[123.456239,8.538054],[123.455961,8.537531],[123.45549,8.5373],[123.454576,8.53729],[123.453866,8.537526],[123.453616,8.538066],[123.45314,8.538462],[123.4528,8.538201],[123.452528,8.537426],[123.452024,8.536963],[123.45046,8.537863],[123.448818,8.536899],[123.446962,8.536967],[123.445868,8.538188],[123.444928,8.538874],[123.442059,8.539874]]]}},{"type":"Feature","properties":{"name":"Baylimango","pcode":"PH0907201007"},"geometry":{"type":"Polygon","coordinates":[[[123.439589,8.711792],[123.437899,8.710085],[123.437073,8.709448],[123.430284,8.695505],[123.430029,8.694723],[123.429502,8.694419],[123.428768,8.693478],[123.428464,8.692457],[123.441711,8.681682],[123.448838,8.681832],[123.450494,8.68245],[123.451079,8.682569],[123.451231,8.682532],[123.451375,8.683694],[123.45199,8.684629],[123.451864,8.684503],[123.451768,8.684521],[123.451743,8.684363],[123.451568,8.684285],[123.451538,8.684415],[123.451622,8.684542],[123.451417,8.684518],[123.451167,8.684821],[123.451387,8.68501],[123.451451,8.685207],[123.451587,8.685209],[123.451645,8.685379],[123.451388,8.685452],[123.451384,8.685541],[123.451719,8.685632],[123.451869,8.685848],[123.45179,8.685955],[123.45192,8.68598],[123.451949,8.686103],[123.452034,8.686091],[123.452111,8.686189],[123.452024,8.686211],[123.452029,8.686304],[123.452151,8.686366],[123.452183,8.68654],[123.452079,8.68653],[123.452004,8.686626],[123.452219,8.686829],[123.452118,8.68703],[123.452376,8.687173],[123.452595,8.687511],[123.452431,8.687673],[123.452372,8.687884],[123.452189,8.687983],[123.451931,8.687746],[123.451968,8.68753],[123.451852,8.687643],[123.451856,8.687763],[123.451655,8.687823],[123.451684,8.687912],[123.451836,8.687927],[123.45161,8.688063],[123.451886,8.688295],[123.451776,8.688547],[123.451805,8.688799],[123.452055,8.689],[123.452166,8.689292],[123.452271,8.689206],[123.45231,8.689297],[123.45245,8.689338],[123.452336,8.689547],[123.452417,8.689553],[123.452508,8.689754],[123.452435,8.68991],[123.452531,8.689958],[123.452541,8.690147],[123.452441,8.690159],[123.452499,8.69029],[123.45239,8.690261],[123.452353,8.690365],[123.452589,8.690614],[123.452504,8.690727],[123.452545,8.690822],[123.452394,8.690942],[123.452487,8.691004],[123.452585,8.691365],[123.452713,8.69137],[123.452759,8.691665],[123.452643,8.691854],[123.453034,8.691959],[123.452993,8.692344],[123.453177,8.692503],[123.453207,8.692634],[123.453035,8.693278],[123.452826,8.693604],[123.452629,8.693676],[123.452439,8.693916],[123.452396,8.694085],[123.452476,8.694136],[123.45248,8.694263],[123.452229,8.694472],[123.45221,8.694912],[123.452033,8.69487],[123.452124,8.695103],[123.452076,8.695228],[123.451974,8.695263],[123.452124,8.69526],[123.452065,8.695373],[123.452122,8.695503],[123.452,8.695444],[123.452035,8.695638],[123.451824,8.695819],[123.451785,8.695966],[123.451885,8.696112],[123.451789,8.69668],[123.451894,8.696689],[123.451935,8.696861],[123.451832,8.696833],[123.45184,8.696993],[123.451637,8.696896],[123.451421,8.696981],[123.451425,8.697303],[123.451659,8.697434],[123.451532,8.697553],[123.451786,8.697562],[123.451817,8.697628],[123.45171,8.697603],[123.451693,8.697686],[123.451814,8.697773],[123.451903,8.697743],[123.451987,8.697913],[123.451836,8.697971],[123.451707,8.697864],[123.451619,8.69829],[123.451402,8.698002],[123.451483,8.697922],[123.451452,8.697724],[123.451096,8.697728],[123.45102,8.698087],[123.451099,8.698181],[123.450983,8.698321],[123.451343,8.698511],[123.451284,8.698769],[123.451065,8.698807],[123.451024,8.698941],[123.450826,8.698883],[123.450818,8.699229],[123.450609,8.698911],[123.450419,8.698896],[123.450396,8.698822],[123.450207,8.698936],[123.450184,8.699041],[123.450044,8.699047],[123.450032,8.699395],[123.449912,8.699356],[123.449823,8.699486],[123.449953,8.699553],[123.449788,8.6997],[123.449673,8.69967],[123.449623,8.699834],[123.449471,8.699909],[123.449509,8.700069],[123.449378,8.700034],[123.449376,8.700194],[123.449285,8.700164],[123.449162,8.70026],[123.449107,8.700415],[123.448902,8.700366],[123.448715,8.700762],[123.448557,8.700833],[123.448776,8.700955],[123.448749,8.701063],[123.448628,8.701057],[123.448591,8.701227],[123.448265,8.701249],[123.448351,8.701348],[123.448211,8.701332],[123.448238,8.701491],[123.448133,8.701381],[123.448101,8.701152],[123.447963,8.701151],[123.44788,8.70126],[123.448007,8.701459],[123.448005,8.701599],[123.447886,8.701583],[123.447815,8.701701],[123.447478,8.701672],[123.447576,8.701847],[123.447495,8.702075],[123.447395,8.70212],[123.447537,8.70224],[123.447432,8.702271],[123.447497,8.702401],[123.447341,8.702605],[123.447341,8.702749],[123.447036,8.702817],[123.446885,8.702976],[123.446701,8.702923],[123.446931,8.703128],[123.446826,8.70314],[123.446931,8.703384],[123.446791,8.7035],[123.44688,8.703647],[123.446607,8.703731],[123.446467,8.703464],[123.446472,8.703241],[123.44596,8.702997],[123.445833,8.703041],[123.446125,8.703456],[123.446042,8.703555],[123.446171,8.703646],[123.445998,8.703667],[123.44593,8.703753],[123.445705,8.703614],[123.445753,8.703772],[123.445878,8.703855],[123.445899,8.703979],[123.445824,8.704024],[123.445929,8.704044],[123.445924,8.70424],[123.44582,8.704244],[123.44584,8.70416],[123.445657,8.704066],[123.445665,8.704162],[123.44553,8.704174],[123.44556,8.704361],[123.445294,8.704326],[123.445257,8.704212],[123.445146,8.704322],[123.445214,8.704389],[123.445108,8.704388],[123.445178,8.704531],[123.444867,8.70462],[123.444929,8.70477],[123.444794,8.704792],[123.444794,8.705105],[123.444702,8.705002],[123.444494,8.704985],[123.444068,8.705134],[123.444402,8.705126],[123.444261,8.705284],[123.444281,8.705493],[123.444188,8.705549],[123.444239,8.705732],[123.444086,8.7057],[123.443908,8.705538],[123.44406,8.705769],[123.443988,8.705924],[123.443828,8.705855],[123.443917,8.705742],[123.443855,8.705658],[123.443673,8.705987],[123.443514,8.706046],[123.443598,8.706255],[123.443595,8.706825],[123.443445,8.706901],[123.443327,8.706812],[123.44329,8.706916],[123.443181,8.706936],[123.44304,8.70648],[123.442864,8.706543],[123.442782,8.706674],[123.442738,8.706859],[123.442896,8.706821],[123.443113,8.706917],[123.443372,8.707199],[123.443292,8.707183],[123.44326,8.707259],[123.443375,8.707404],[123.443124,8.707471],[123.44317,8.707338],[123.442854,8.706986],[123.442605,8.707238],[123.442836,8.707244],[123.44284,8.707496],[123.442469,8.707536],[123.442446,8.707715],[123.442312,8.707761],[123.442227,8.707933],[123.442152,8.707928],[123.442133,8.707824],[123.44185,8.707945],[123.441744,8.707891],[123.441671,8.707973],[123.441446,8.707967],[123.441473,8.708038],[123.441616,8.708058],[123.441767,8.708384],[123.441741,8.70848],[123.44163,8.708479],[123.441541,8.708282],[123.441462,8.708485],[123.441542,8.708613],[123.441493,8.708704],[123.441287,8.708543],[123.441366,8.708466],[123.441279,8.708373],[123.441343,8.708245],[123.441124,8.7083],[123.440967,8.708149],[123.440793,8.708242],[123.440699,8.70856],[123.439938,8.709517],[123.43978,8.709824],[123.439641,8.709834],[123.439542,8.709978],[123.439585,8.710159],[123.439701,8.710132],[123.439968,8.710388],[123.440031,8.710832],[123.439942,8.710824],[123.4399,8.710931],[123.439569,8.710937],[123.439707,8.711241],[123.439477,8.711277],[123.439632,8.711564],[123.439589,8.711792]]]}},{"type":"Feature","properties":{"name":"Burgos","pcode":"PH0907201009"},"geometry":{"type":"Polygon","coordinates":[[[123.429523,8.574601],[123.429591,8.579533],[123.421532,8.579384],[123.412597,8.577767],[123.413229,8.575721],[123.413373,8.574568],[123.413279,8.573626],[123.413773,8.572815],[123.414698,8.5724],[123.416097,8.572382],[123.416947,8.571737],[123.417061,8.570851],[123.414522,8.570968],[123.411268,8.568464],[123.407499,8.566833],[123.411838,8.560218],[123.41402,8.553587],[123.42068,8.554828],[123.423946,8.553874],[123.42519,8.555039],[123.426657,8.555912],[123.427228,8.556136],[123.430224,8.558184],[123.429166,8.561289],[123.429523,8.574601]]]}},{"type":"Feature","properties":{"name":"Canlucani","pcode":"PH0907201010"},"geometry":{"type":"Polygon","coordinates":[[[123.384835,8.713362],[123.380156,8.714241],[123.379847,8.714239],[123.380115,8.713816],[123.380049,8.713604],[123.380008,8.712091],[123.380063,8.708756],[123.379959,8.708126],[123.379785,8.707917],[123.379645,8.707493],[123.379481,8.707386],[123.379438,8.707173],[123.379126,8.706757],[123.378818,8.706616],[123.378591,8.705437],[123.378659,8.704583],[123.378862,8.704394],[123.379351,8.70434],[123.379484,8.704442],[123.379499,8.704684],[123.379968,8.704821],[123.38057,8.70469],[123.38087,8.704755],[123.381311,8.704517],[123.381673,8.704132],[123.381821,8.704111],[123.381929,8.703785],[123.382162,8.703698],[123.38253,8.702988],[123.383044,8.70264],[123.383676,8.701744],[123.383847,8.701663],[123.384078,8.70173],[123.384343,8.702115],[123.384879,8.702467],[123.385009,8.702748],[123.385163,8.702353],[123.385276,8.702354],[123.385307,8.702435],[123.3852,8.702652],[123.38546,8.702723],[123.385542,8.702968],[123.38548,8.703072],[123.385571,8.703236],[123.385681,8.703161],[123.385652,8.702929],[123.385925,8.702786],[123.386198,8.70302],[123.386072,8.703116],[123.386016,8.702979],[123.385952,8.702987],[123.385922,8.703273],[123.386424,8.703046],[123.38669,8.702751],[123.386884,8.70308],[123.386888,8.703833],[123.387667,8.705578],[123.389524,8.711753],[123.384835,8.713362]]]}},{"type":"Feature","properties":{"name":"Carang","pcode":"PH0907201011"},"geometry":{"type":"Polygon","coordinates":[[[123.431054,8.717367],[123.431002,8.717279],[123.431234,8.716897],[123.430369,8.717236],[123.430236,8.716239],[123.427404,8.705984],[123.415423,8.700996],[123.41888,8.690007],[123.419304,8.690338],[123.421018,8.692045],[123.423791,8.694177],[123.428464,8.692457],[123.428768,8.693478],[123.429502,8.694419],[123.430029,8.694723],[123.430284,8.695505],[123.437073,8.709448],[123.437899,8.710085],[123.43958,8.711798],[123.439386,8.711934],[123.438451,8.713099],[123.438333,8.71318],[123.438135,8.713179],[123.438181,8.71339],[123.437889,8.71338],[123.437778,8.713198],[123.437583,8.713113],[123.437339,8.713158],[123.437307,8.71307],[123.437213,8.713242],[123.436923,8.713201],[123.437041,8.713401],[123.436931,8.713487],[123.436916,8.713676],[123.4372,8.713974],[123.437216,8.71417],[123.436668,8.714611],[123.436703,8.714825],[123.436877,8.714984],[123.436751,8.715076],[123.436771,8.715188],[123.43653,8.715369],[123.436347,8.715364],[123.436124,8.715517],[123.436025,8.71569],[123.435845,8.715743],[123.435806,8.715423],[123.435734,8.715568],[123.435599,8.715513],[123.435611,8.715118],[123.435718,8.715065],[123.435327,8.714997],[123.435194,8.715329],[123.435215,8.715565],[123.435124,8.715703],[123.434948,8.715627],[123.43499,8.715756],[123.43486,8.715831],[123.434903,8.715926],[123.434787,8.715985],[123.434757,8.716127],[123.434693,8.716105],[123.434772,8.715859],[123.434714,8.715705],[123.434838,8.715613],[123.434538,8.715653],[123.434256,8.716549],[123.433513,8.716404],[123.433166,8.716568],[123.432741,8.716501],[123.432621,8.716557],[123.432334,8.716353],[123.432282,8.716488],[123.432345,8.716576],[123.432273,8.716587],[123.432127,8.716503],[123.432107,8.716387],[123.43188,8.716301],[123.431604,8.715898],[123.431552,8.715614],[123.431364,8.715468],[123.431054,8.716036],[123.431319,8.716467],[123.431278,8.716657],[123.431408,8.716857],[123.43134,8.717036],[123.431447,8.717132],[123.431331,8.717356],[123.431264,8.717351],[123.431252,8.717239],[123.431133,8.717254],[123.431054,8.717367]]]}},{"type":"Feature","properties":{"name":"Dampalan","pcode":"PH0907201012"},"geometry":{"type":"Polygon","coordinates":[[[123.501496,8.540828],[123.50101,8.540979],[123.500561,8.540484],[123.500218,8.539846],[123.500241,8.539161],[123.500346,8.538722],[123.500071,8.538399],[123.50014,8.537942],[123.50036,8.537529],[123.50035,8.537038],[123.499951,8.536568],[123.49946,8.53628],[123.498664,8.536092],[123.4978,8.536163],[123.497148,8.536076],[123.4964,8.536228],[123.496159,8.536755],[123.496434,8.537309],[123.496523,8.537838],[123.49565,8.538602],[123.495312,8.539136],[123.494923,8.539439],[123.493899,8.53909],[123.493711,8.53849],[123.493773,8.537801],[123.493625,8.537295],[123.493023,8.536759],[123.492519,8.536012],[123.492247,8.535168],[123.492155,8.534404],[123.49192,8.533859],[123.491341,8.533721],[123.490643,8.533885],[123.490206,8.53433],[123.490101,8.534887],[123.490083,8.535708],[123.488627,8.530995],[123.483536,8.526923],[123.483857,8.526899],[123.485088,8.52628],[123.486535,8.525784],[123.48763,8.525571],[123.487595,8.523474],[123.48915,8.523452],[123.489859,8.522913],[123.490456,8.523115],[123.490222,8.521796],[123.489541,8.520886],[123.488737,8.520061],[123.48872,8.518623],[123.488373,8.517739],[123.488495,8.516712],[123.488892,8.515971],[123.490023,8.516736],[123.492751,8.519773],[123.492954,8.519026],[123.492791,8.517638],[123.4922,8.516987],[123.491397,8.516363],[123.491193,8.51581],[123.49135,8.514909],[123.49177,8.514415],[123.492633,8.51415],[123.493687,8.514114],[123.495306,8.514962],[123.496417,8.514671],[123.498206,8.51437],[123.49989,8.514285],[123.499721,8.512872],[123.499227,8.511764],[123.498586,8.51118],[123.49742,8.510869],[123.49667,8.510253],[123.496112,8.50937],[123.495809,8.506706],[123.496096,8.506015],[123.498246,8.505424],[123.499646,8.504886],[123.501007,8.50356],[123.501751,8.502553],[123.501868,8.501884],[123.502912,8.501213],[123.504059,8.500862],[123.503356,8.499269],[123.506637,8.499053],[123.509524,8.499373],[123.509483,8.499504],[123.51002,8.500466],[123.509827,8.50167],[123.508109,8.50396],[123.505818,8.50501],[123.505054,8.508064],[123.506199,8.5087],[123.506836,8.509591],[123.507027,8.511054],[123.50709,8.512327],[123.508426,8.513854],[123.508108,8.515571],[123.509062,8.517862],[123.507599,8.521298],[123.506963,8.522443],[123.506964,8.52467],[123.504769,8.527723],[123.50397,8.530487],[123.503375,8.535566],[123.503954,8.537668],[123.503141,8.538305],[123.502664,8.538526],[123.502408,8.539001],[123.502288,8.540002],[123.501496,8.540828]]]}},{"type":"Feature","properties":{"name":"Daro","pcode":"PH0907201013"},"geometry":{"type":"Polygon","coordinates":[[[123.487855,8.669586],[123.479421,8.674919],[123.476536,8.670631],[123.46996,8.661787],[123.462122,8.655585],[123.461321,8.649045],[123.465234,8.639588],[123.474768,8.652985],[123.47672,8.655846],[123.479015,8.662115],[123.48408,8.664932],[123.487855,8.669586]]]}},{"type":"Feature","properties":{"name":"Diwa-an","pcode":"PH0907201014"},"geometry":{"type":"Polygon","coordinates":[[[123.432232,8.610788],[123.431886,8.611708],[123.422139,8.608012],[123.422148,8.6074],[123.421981,8.607402],[123.421981,8.606576],[123.421458,8.60348],[123.421998,8.603733],[123.421826,8.603088],[123.42189,8.602918],[123.420626,8.601737],[123.42101,8.601309],[123.421248,8.601222],[123.421355,8.601051],[123.421634,8.600986],[123.422128,8.600642],[123.422341,8.600235],[123.422255,8.600128],[123.422341,8.599826],[123.422513,8.600021],[123.422707,8.599957],[123.423307,8.60002],[123.423801,8.599806],[123.42434,8.599805],[123.424853,8.59959],[123.425303,8.59914],[123.42511,8.598627],[123.425367,8.598454],[123.425516,8.597854],[123.425648,8.597639],[123.425969,8.597552],[123.427341,8.597639],[123.42792,8.597531],[123.428885,8.597659],[123.429293,8.597297],[123.42938,8.597082],[123.429315,8.596053],[123.429401,8.595899],[123.429403,8.595643],[123.429144,8.595429],[123.429015,8.595129],[123.429058,8.594766],[123.428951,8.594485],[123.429208,8.593303],[123.429207,8.592555],[123.429439,8.591886],[123.429452,8.591363],[123.429688,8.59079],[123.429589,8.589557],[123.429701,8.589022],[123.429402,8.588711],[123.428991,8.588486],[123.428854,8.587951],[123.428929,8.587752],[123.429527,8.587291],[123.429776,8.586905],[123.429813,8.586643],[123.430311,8.58622],[123.430274,8.58602],[123.430423,8.585647],[123.43051,8.585609],[123.430585,8.585285],[123.430465,8.584792],[123.430248,8.584427],[123.448032,8.578787],[123.458737,8.571232],[123.458975,8.571575],[123.459015,8.571778],[123.458901,8.571999],[123.459034,8.572459],[123.459051,8.573057],[123.459212,8.602254],[123.451538,8.601547],[123.434762,8.609309],[123.432999,8.60943],[123.432232,8.610788]]]}},{"type":"Feature","properties":{"name":"Guimputlan","pcode":"PH0907201016"},"geometry":{"type":"Polygon","coordinates":[[[123.39755,8.72646],[123.397324,8.726369],[123.397238,8.726223],[123.397277,8.726048],[123.397083,8.726102],[123.397153,8.725976],[123.39686,8.72585],[123.396918,8.725774],[123.397302,8.725862],[123.397321,8.725795],[123.397117,8.725717],[123.396599,8.72569],[123.395578,8.725877],[123.389524,8.711753],[123.399726,8.71513],[123.413622,8.71955],[123.414465,8.720241],[123.414621,8.720498],[123.414476,8.720499],[123.414444,8.720407],[123.414312,8.720443],[123.414273,8.720634],[123.414385,8.720824],[123.414171,8.720794],[123.414486,8.721424],[123.414466,8.721524],[123.41406,8.721687],[123.4137,8.721637],[123.413501,8.721406],[123.412968,8.721497],[123.412717,8.721761],[123.412804,8.721961],[123.412772,8.722118],[123.412914,8.722249],[123.412868,8.722296],[123.412526,8.722323],[123.411997,8.722084],[123.411883,8.722267],[123.411259,8.722333],[123.411139,8.722256],[123.411092,8.722069],[123.411186,8.721694],[123.411168,8.72137],[123.410851,8.721199],[123.410402,8.721485],[123.410484,8.721589],[123.410726,8.721372],[123.410797,8.721418],[123.410729,8.721483],[123.410802,8.721483],[123.410887,8.721667],[123.410777,8.721884],[123.41067,8.721887],[123.410741,8.722003],[123.410625,8.722058],[123.41069,8.722306],[123.410502,8.722292],[123.41005,8.722478],[123.409699,8.722469],[123.409636,8.722661],[123.4093,8.722768],[123.408777,8.722853],[123.408509,8.722723],[123.408265,8.722515],[123.408201,8.72213],[123.40825,8.722042],[123.407947,8.722036],[123.407873,8.72196],[123.407721,8.722057],[123.407678,8.722194],[123.407766,8.722321],[123.408164,8.722503],[123.408075,8.722584],[123.407748,8.722458],[123.407903,8.72291],[123.407461,8.723092],[123.407252,8.723276],[123.40691,8.723347],[123.406845,8.723454],[123.406741,8.723457],[123.406766,8.723542],[123.406411,8.723719],[123.405908,8.723834],[123.405759,8.723724],[123.405345,8.723751],[123.405281,8.723907],[123.404156,8.724175],[123.403727,8.724194],[123.403536,8.724262],[123.403466,8.724473],[123.403072,8.724463],[123.402359,8.724697],[123.402292,8.724824],[123.401766,8.724932],[123.401147,8.72492],[123.401117,8.724655],[123.401036,8.724622],[123.401099,8.724561],[123.40084,8.724426],[123.40062,8.724573],[123.400523,8.724509],[123.399903,8.724636],[123.398748,8.725127],[123.398572,8.725313],[123.398751,8.725412],[123.398697,8.72556],[123.39851,8.725458],[123.398487,8.725365],[123.398389,8.725387],[123.398201,8.725624],[123.398168,8.725972],[123.397909,8.726274],[123.39755,8.72646]]]}},{"type":"Feature","properties":{"name":"Hilltop","pcode":"PH0907201017"},"geometry":{"type":"Polygon","coordinates":[[[123.448032,8.578787],[123.430248,8.584427],[123.430041,8.580966],[123.430095,8.580759],[123.429591,8.579533],[123.429166,8.561289],[123.430224,8.558184],[123.448004,8.565381],[123.458737,8.571232],[123.448032,8.578787]]]}},{"type":"Feature","properties":{"name":"Ilaya","pcode":"PH0907201018"},"geometry":{"type":"Polygon","coordinates":[[[123.452024,8.536963],[123.448004,8.565381],[123.430224,8.558184],[123.427228,8.556136],[123.426657,8.555912],[123.42519,8.555039],[123.423946,8.553874],[123.42068,8.554828],[123.41402,8.553587],[123.41728,8.543679],[123.428122,8.535097],[123.430169,8.531746],[123.431184,8.540514],[123.431324,8.541044],[123.442059,8.539874],[123.444928,8.538874],[123.445868,8.538188],[123.446962,8.536967],[123.448818,8.536899],[123.45046,8.537863],[123.452024,8.536963]]]}},{"type":"Feature","properties":{"name":"Larayan","pcode":"PH0907201019"},"geometry":{"type":"Polygon","coordinates":[[[123.384941,8.622445],[123.380427,8.625583],[123.377267,8.625529],[123.362841,8.622546],[123.368073,8.616918],[123.374497,8.607359],[123.377844,8.603682],[123.38078,8.620053],[123.381253,8.620217],[123.381929,8.62062],[123.382332,8.620511],[123.382672,8.620217],[123.383214,8.62014],[123.384073,8.620654],[123.384429,8.620977],[123.384941,8.622445]]]}},{"type":"Feature","properties":{"name":"Liyang","pcode":"PH0907201020"},"geometry":{"type":"Polygon","coordinates":[[[123.367939,8.630264],[123.358897,8.631112],[123.359735,8.625861],[123.362841,8.622546],[123.377267,8.625529],[123.380427,8.625583],[123.378938,8.6267],[123.37518,8.628901],[123.370983,8.630559],[123.367939,8.630264]]]}},{"type":"Feature","properties":{"name":"Maria Cristina","pcode":"PH0907201021"},"geometry":{"type":"Polygon","coordinates":[[[123.455113,8.666861],[123.451778,8.667402],[123.445028,8.659948],[123.445482,8.656259],[123.444917,8.656157],[123.444697,8.655675],[123.444099,8.655459],[123.443662,8.655442],[123.443241,8.655276],[123.442266,8.655176],[123.441795,8.655027],[123.44082,8.653764],[123.440071,8.652636],[123.439516,8.65242],[123.439112,8.65212],[123.438726,8.651971],[123.438524,8.651655],[123.438054,8.651291],[123.437633,8.651324],[123.437162,8.651622],[123.436456,8.651739],[123.43587,8.651425],[123.435685,8.650146],[123.435684,8.649381],[123.435431,8.648616],[123.434964,8.648223],[123.434388,8.648299],[123.433782,8.648631],[123.432958,8.648913],[123.431598,8.64923],[123.431193,8.649645],[123.431731,8.650592],[123.43195,8.651324],[123.431294,8.653352],[123.430675,8.654738],[123.42943,8.653539],[123.428385,8.651905],[123.428528,8.650933],[123.428191,8.649475],[123.425317,8.648746],[123.425145,8.648253],[123.427137,8.646015],[123.427823,8.645861],[123.428937,8.645865],[123.429577,8.64568],[123.430581,8.644096],[123.430783,8.643463],[123.431126,8.64317],[123.431188,8.642554],[123.431329,8.642107],[123.431298,8.641675],[123.43111,8.641336],[123.430798,8.641212],[123.430518,8.641243],[123.430159,8.641089],[123.429863,8.64055],[123.429613,8.640349],[123.429223,8.640288],[123.428896,8.640457],[123.428085,8.64129],[123.427595,8.641034],[123.427516,8.640479],[123.427657,8.639954],[123.427922,8.639523],[123.428561,8.638952],[123.428545,8.638443],[123.428389,8.637888],[123.428093,8.637719],[123.427984,8.636963],[123.427422,8.636455],[123.427188,8.636131],[123.427142,8.635853],[123.427609,8.635638],[123.427937,8.635221],[123.427827,8.634774],[123.42736,8.634774],[123.426783,8.634913],[123.426424,8.634836],[123.426128,8.63462],[123.425894,8.63425],[123.425831,8.633819],[123.426137,8.633798],[123.426763,8.633488],[123.427181,8.633024],[123.427026,8.632482],[123.426549,8.632247],[123.425946,8.63217],[123.430867,8.630294],[123.433396,8.629077],[123.435054,8.628074],[123.435222,8.626812],[123.435839,8.62629],[123.436256,8.626085],[123.436552,8.625531],[123.448837,8.623189],[123.454005,8.619973],[123.454073,8.619581],[123.4574,8.62082],[123.458081,8.62173],[123.458239,8.631324],[123.465234,8.639588],[123.461321,8.649045],[123.462122,8.655585],[123.455113,8.666861]]]}},{"type":"Feature","properties":{"name":"Maria Uray","pcode":"PH0907201022"},"geometry":{"type":"Polygon","coordinates":[[[123.430867,8.630294],[123.425946,8.63217],[123.425094,8.632096],[123.42452,8.63189],[123.423972,8.631245],[123.423868,8.630471],[123.424058,8.629646],[123.424851,8.628848],[123.425119,8.627351],[123.425641,8.627196],[123.426163,8.627299],[123.426581,8.627557],[123.427076,8.627402],[123.426971,8.627015],[123.426528,8.626732],[123.426006,8.62619],[123.425157,8.624622],[123.424985,8.623956],[123.425604,8.623542],[123.425934,8.623022],[123.431055,8.617442],[123.427177,8.615391],[123.430309,8.613878],[123.431587,8.612124],[123.431697,8.611812],[123.431886,8.611708],[123.432232,8.610788],[123.432999,8.60943],[123.434762,8.609309],[123.451538,8.601547],[123.459212,8.602254],[123.454005,8.619973],[123.448837,8.623189],[123.436552,8.625531],[123.436256,8.626085],[123.435839,8.62629],[123.435222,8.626812],[123.435054,8.628074],[123.433396,8.629077],[123.430867,8.630294]]]}},{"type":"Feature","properties":{"name":"Masidlakon","pcode":"PH0907201023"},"geometry":{"type":"Polygon","coordinates":[[[123.483857,8.526899],[123.483536,8.526923],[123.480783,8.525006],[123.468243,8.523646],[123.472336,8.518425],[123.476489,8.513487],[123.475796,8.494966],[123.475592,8.494767],[123.477146,8.493409],[123.479678,8.492283],[123.481468,8.492079],[123.489822,8.489288],[123.490357,8.489315],[123.49165,8.489559],[123.494388,8.489651],[123.495955,8.489539],[123.497166,8.489173],[123.497553,8.488806],[123.497909,8.488776],[123.499161,8.489386],[123.506172,8.489894],[123.50869,8.491612],[123.509119,8.493015],[123.508077,8.494238],[123.506899,8.494924],[123.505411,8.495282],[123.504129,8.49608],[123.503428,8.49694],[123.503265,8.497809],[123.503356,8.499269],[123.504059,8.500862],[123.502912,8.501213],[123.501868,8.501884],[123.501751,8.502553],[123.501007,8.50356],[123.499646,8.504886],[123.498246,8.505424],[123.496096,8.506015],[123.495809,8.506706],[123.496112,8.50937],[123.49667,8.510253],[123.49742,8.510869],[123.498586,8.51118],[123.499227,8.511764],[123.499721,8.512872],[123.49989,8.514285],[123.498206,8.51437],[123.496417,8.514671],[123.495306,8.514962],[123.493687,8.514114],[123.492633,8.51415],[123.49177,8.514415],[123.49135,8.514909],[123.491193,8.51581],[123.491397,8.516363],[123.4922,8.516987],[123.492791,8.517638],[123.492954,8.519026],[123.492751,8.519773],[123.490023,8.516736],[123.488892,8.515971],[123.488495,8.516712],[123.488373,8.517739],[123.48872,8.518623],[123.488737,8.520061],[123.489541,8.520886],[123.490222,8.521796],[123.490456,8.523115],[123.489859,8.522913],[123.48915,8.523452],[123.487595,8.523474],[123.48763,8.525571],[123.486535,8.525784],[123.485088,8.52628],[123.483857,8.526899]]]}},{"type":"Feature","properties":{"name":"Napo","pcode":"PH0907201024"},"geometry":{"type":"Polygon","coordinates":[[[123.497094,8.701388],[123.496437,8.701163],[123.495138,8.700464],[123.49465,8.700313],[123.494242,8.699865],[123.494007,8.699732],[123.493317,8.699414],[123.492921,8.6994],[123.492796,8.698996],[123.492888,8.698878],[123.492845,8.69852],[123.49308,8.698121],[123.492926,8.697927],[123.492787,8.697889],[123.492831,8.697682],[123.492723,8.697503],[123.492724,8.697126],[123.492371,8.696904],[123.492441,8.69672],[123.492233,8.696691],[123.492169,8.696547],[123.492037,8.696702],[123.49186,8.696661],[123.491809,8.696387],[123.491696,8.696297],[123.49169,8.696069],[123.491483,8.696224],[123.491348,8.696173],[123.491398,8.695911],[123.490914,8.695529],[123.490978,8.695318],[123.49081,8.6951],[123.490834,8.694921],[123.490595,8.694844],[123.490871,8.694661],[123.490833,8.69454],[123.490468,8.694417],[123.490425,8.694467],[123.490521,8.694678],[123.490319,8.694644],[123.49032,8.694431],[123.490182,8.694282],[123.49027,8.694149],[123.490243,8.694051],[123.489745,8.693668],[123.489709,8.693374],[123.489368,8.69348],[123.48933,8.693388],[123.489409,8.693194],[123.489192,8.693156],[123.488963,8.692745],[123.488969,8.692615],[123.488645,8.69282],[123.488515,8.692804],[123.488456,8.692617],[123.488256,8.692605],[123.488216,8.692411],[123.487996,8.692329],[123.487968,8.692163],[123.48779,8.692125],[123.48764,8.691899],[123.487393,8.691808],[123.487438,8.69165],[123.487328,8.69148],[123.486245,8.690767],[123.485814,8.690656],[123.485223,8.690191],[123.48454,8.689851],[123.484317,8.689643],[123.484048,8.689186],[123.48371,8.689099],[123.483744,8.688937],[123.48395,8.688759],[123.484341,8.688674],[123.484524,8.68836],[123.484419,8.688257],[123.484319,8.687808],[123.484022,8.687617],[123.484038,8.687237],[123.484199,8.687214],[123.484043,8.686994],[123.483856,8.686958],[123.48377,8.68731],[123.483668,8.68734],[123.483398,8.68702],[123.483403,8.686907],[123.483285,8.686951],[123.483097,8.686762],[123.482838,8.686296],[123.482671,8.68633],[123.482647,8.686449],[123.482568,8.686359],[123.482208,8.686453],[123.481847,8.6863],[123.481671,8.686371],[123.481628,8.686532],[123.481486,8.686463],[123.481246,8.686628],[123.481104,8.686531],[123.481009,8.687049],[123.480886,8.687001],[123.480775,8.687102],[123.480658,8.687006],[123.480521,8.687043],[123.479968,8.687573],[123.479305,8.6877],[123.478821,8.6875],[123.478383,8.687184],[123.478104,8.686868],[123.477829,8.68641],[123.47742,8.686],[123.477193,8.685506],[123.476582,8.684969],[123.476106,8.684838],[123.475896,8.68433],[123.475742,8.684258],[123.475678,8.684032],[123.475354,8.683984],[123.475396,8.683833],[123.475499,8.683777],[123.475276,8.683357],[123.475318,8.683145],[123.475404,8.683099],[123.474977,8.682658],[123.475079,8.682333],[123.474968,8.682262],[123.474954,8.682114],[123.474803,8.682089],[123.474825,8.681882],[123.474686,8.681447],[123.47454,8.681442],[123.474671,8.681073],[123.474596,8.681016],[123.474477,8.680985],[123.474252,8.681666],[123.474066,8.681843],[123.473918,8.681768],[123.473764,8.682007],[123.473783,8.682143],[123.473543,8.682346],[123.473477,8.682572],[123.473515,8.682943],[123.473327,8.682889],[123.473054,8.68311],[123.473134,8.683228],[123.473132,8.683503],[123.472727,8.683392],[123.472652,8.683464],[123.472648,8.683752],[123.472506,8.683842],[123.472124,8.683678],[123.472107,8.683872],[123.471853,8.683561],[123.471523,8.680486],[123.473006,8.680446],[123.479421,8.674919],[123.490018,8.68123],[123.491216,8.682933],[123.495483,8.693808],[123.495681,8.694135],[123.49585,8.694244],[123.495906,8.695097],[123.496217,8.696131],[123.496517,8.696382],[123.496887,8.696478],[123.497094,8.701388]]]}},{"type":"Feature","properties":{"name":"Opao","pcode":"PH0907201025"},"geometry":{"type":"Polygon","coordinates":[[[123.483122,8.540424],[123.482527,8.540475],[123.482666,8.539066],[123.482367,8.538546],[123.481815,8.538034],[123.481036,8.538107],[123.480071,8.537749],[123.476459,8.539458],[123.475217,8.539859],[123.474572,8.539565],[123.473569,8.538929],[123.473013,8.537953],[123.471844,8.536814],[123.47066,8.536921],[123.469312,8.536768],[123.468374,8.535917],[123.466959,8.534839],[123.466214,8.534127],[123.465934,8.53371],[123.46448,8.53362],[123.463141,8.533996],[123.462169,8.533738],[123.461958,8.532881],[123.461584,8.532252],[123.461803,8.531813],[123.462615,8.53148],[123.463141,8.531131],[123.464035,8.528921],[123.46518,8.528025],[123.468243,8.523646],[123.480783,8.525006],[123.483536,8.526923],[123.488627,8.530995],[123.490083,8.535708],[123.490083,8.53755],[123.490019,8.537994],[123.489342,8.539111],[123.488852,8.539596],[123.488129,8.539459],[123.48769,8.538952],[123.487523,8.538214],[123.487342,8.536297],[123.486549,8.535436],[123.485726,8.535081],[123.484901,8.534893],[123.484051,8.535149],[123.483371,8.536472],[123.483762,8.537851],[123.483803,8.538528],[123.483696,8.539743],[123.483426,8.540158],[123.483122,8.540424]]]}},{"type":"Feature","properties":{"name":"Oro","pcode":"PH0907201026"},"geometry":{"type":"Polygon","coordinates":[[[123.456386,8.691321],[123.456052,8.691183],[123.455877,8.691025],[123.455847,8.690846],[123.455671,8.690884],[123.455482,8.6906],[123.455521,8.690428],[123.455714,8.690186],[123.455574,8.689911],[123.455563,8.68965],[123.455476,8.689585],[123.455457,8.689086],[123.45534,8.689019],[123.455271,8.688754],[123.455308,8.688265],[123.455208,8.688132],[123.455194,8.687735],[123.455106,8.687714],[123.454968,8.687988],[123.454693,8.687876],[123.454549,8.687596],[123.45457,8.687492],[123.454425,8.687504],[123.4545,8.687434],[123.454468,8.687353],[123.454339,8.687405],[123.454321,8.687166],[123.454236,8.687322],[123.45417,8.687098],[123.453807,8.686948],[123.453746,8.686415],[123.453586,8.686415],[123.453676,8.686486],[123.45353,8.686622],[123.453304,8.686527],[123.453106,8.686589],[123.453111,8.68635],[123.45319,8.686244],[123.453298,8.686164],[123.453298,8.686303],[123.453484,8.686116],[123.453289,8.685836],[123.453098,8.685793],[123.452993,8.685687],[123.453042,8.685611],[123.45283,8.685512],[123.452872,8.685396],[123.452666,8.685346],[123.452631,8.68517],[123.452452,8.685101],[123.452332,8.68487],[123.452416,8.684794],[123.452373,8.684642],[123.452316,8.684632],[123.452354,8.68476],[123.45223,8.684855],[123.452147,8.684583],[123.45199,8.684629],[123.451375,8.683694],[123.451231,8.682532],[123.451495,8.682467],[123.452293,8.682026],[123.452677,8.682052],[123.453112,8.681535],[123.450909,8.678737],[123.449785,8.675777],[123.454503,8.675876],[123.461609,8.672422],[123.471523,8.680486],[123.471853,8.683561],[123.472143,8.683944],[123.471851,8.684276],[123.471992,8.684202],[123.472069,8.684295],[123.471768,8.68465],[123.471504,8.68473],[123.471442,8.685013],[123.471293,8.685085],[123.471388,8.685371],[123.471081,8.685328],[123.470888,8.685493],[123.470988,8.685626],[123.470608,8.685866],[123.470474,8.685771],[123.470534,8.685659],[123.470476,8.685635],[123.469914,8.686017],[123.469903,8.686138],[123.470206,8.68629],[123.470183,8.686417],[123.469679,8.686243],[123.469586,8.686286],[123.469382,8.686622],[123.469103,8.686869],[123.469158,8.687026],[123.469306,8.68708],[123.46935,8.6873],[123.46915,8.687175],[123.468979,8.687241],[123.468972,8.687057],[123.468664,8.687281],[123.468624,8.687483],[123.468443,8.687593],[123.46866,8.687723],[123.468734,8.687949],[123.468908,8.68813],[123.468822,8.688297],[123.468564,8.688374],[123.468395,8.68811],[123.468214,8.688004],[123.467975,8.687568],[123.467773,8.6875],[123.467814,8.687729],[123.467611,8.687582],[123.467433,8.687624],[123.467336,8.687836],[123.467776,8.688432],[123.467602,8.688685],[123.467767,8.688838],[123.467763,8.689005],[123.467644,8.689028],[123.467398,8.688903],[123.46711,8.688145],[123.466584,8.688095],[123.466614,8.688334],[123.466818,8.688477],[123.466677,8.688693],[123.467131,8.689455],[123.467037,8.689548],[123.466411,8.689512],[123.466402,8.689263],[123.466195,8.688988],[123.466183,8.688653],[123.465824,8.688607],[123.465594,8.688331],[123.465025,8.68845],[123.464856,8.688682],[123.464767,8.688684],[123.464726,8.688869],[123.464483,8.688554],[123.464401,8.688754],[123.464491,8.688777],[123.464498,8.688879],[123.464414,8.688954],[123.464253,8.68894],[123.464205,8.688731],[123.464042,8.688831],[123.463882,8.688663],[123.463826,8.688755],[123.463578,8.688728],[123.463536,8.688473],[123.463707,8.688194],[123.463664,8.688124],[123.463435,8.688388],[123.463355,8.68818],[123.463157,8.688676],[123.463104,8.688639],[123.463149,8.688565],[123.463003,8.688491],[123.462919,8.688647],[123.462436,8.688814],[123.462465,8.688915],[123.462396,8.688944],[123.46215,8.688883],[123.461956,8.688417],[123.461586,8.688422],[123.461537,8.688494],[123.461613,8.688847],[123.461399,8.68905],[123.461514,8.689153],[123.461474,8.689316],[123.461241,8.689343],[123.461279,8.689655],[123.460796,8.689643],[123.460467,8.689293],[123.46043,8.689465],[123.460311,8.689397],[123.460179,8.689517],[123.460036,8.689515],[123.460026,8.689646],[123.460129,8.689776],[123.460048,8.689879],[123.459688,8.689605],[123.459667,8.689484],[123.459442,8.689578],[123.459395,8.689394],[123.459294,8.689389],[123.458839,8.689582],[123.458817,8.689776],[123.458693,8.689729],[123.458481,8.689938],[123.457479,8.69047],[123.457339,8.690464],[123.457088,8.690187],[123.456984,8.690201],[123.456801,8.690545],[123.456892,8.690778],[123.456742,8.691099],[123.456386,8.691321]]]}},{"type":"Feature","properties":{"name":"Owaon","pcode":"PH0907201027"},"geometry":{"type":"Polygon","coordinates":[[[123.38859,8.619656],[123.384429,8.620977],[123.384073,8.620654],[123.383214,8.62014],[123.382672,8.620217],[123.382332,8.620511],[123.381929,8.62062],[123.381253,8.620217],[123.38078,8.620053],[123.377844,8.603682],[123.392189,8.587962],[123.392552,8.597769],[123.390539,8.601319],[123.390885,8.605472],[123.393093,8.611132],[123.395939,8.614489],[123.399444,8.615876],[123.396695,8.619256],[123.395144,8.620552],[123.394833,8.620489],[123.394458,8.620254],[123.393956,8.619377],[123.393663,8.619077],[123.38859,8.619656]]]}},{"type":"Feature","properties":{"name":"Oyan","pcode":"PH0907201028"},"geometry":{"type":"Polygon","coordinates":[[[123.409762,8.594387],[123.410072,8.594979],[123.408692,8.593953],[123.407706,8.593654],[123.40286,8.589699],[123.400411,8.587831],[123.392189,8.587962],[123.407499,8.566833],[123.411268,8.568464],[123.414522,8.570968],[123.417061,8.570851],[123.416947,8.571737],[123.416097,8.572382],[123.414698,8.5724],[123.413773,8.572815],[123.413279,8.573626],[123.413373,8.574568],[123.413229,8.575721],[123.412597,8.577767],[123.411578,8.579417],[123.410877,8.581026],[123.41082,8.583073],[123.411178,8.587157],[123.410494,8.587851],[123.409522,8.589147],[123.409325,8.590331],[123.409353,8.592387],[123.409522,8.593711],[123.409762,8.594387]]]}},{"type":"Feature","properties":{"name":"Polo","pcode":"PH0907201031"},"geometry":{"type":"Polygon","coordinates":[[[123.422597,8.638067],[123.421973,8.638098],[123.420195,8.637605],[123.419524,8.637281],[123.41928,8.63698],[123.419134,8.636464],[123.418822,8.634768],[123.418557,8.634198],[123.417933,8.633859],[123.416795,8.633998],[123.415781,8.634337],[123.414814,8.634168],[123.413903,8.635479],[123.413051,8.634433],[123.412896,8.63455],[123.412723,8.634386],[123.41237,8.634273],[123.412267,8.634179],[123.412267,8.633994],[123.412057,8.634078],[123.412254,8.634357],[123.411991,8.634498],[123.412186,8.634651],[123.412556,8.634522],[123.412727,8.634771],[123.412761,8.634918],[123.412656,8.634995],[123.412664,8.635241],[123.412495,8.635417],[123.412213,8.635484],[123.411284,8.635456],[123.410638,8.635604],[123.409579,8.635664],[123.409206,8.635786],[123.408247,8.635778],[123.407868,8.636135],[123.407212,8.635895],[123.406688,8.635363],[123.403123,8.632321],[123.40279,8.632138],[123.402613,8.632247],[123.401331,8.631236],[123.400554,8.63077],[123.400681,8.630578],[123.40135,8.628563],[123.402892,8.625551],[123.405446,8.625286],[123.407758,8.625958],[123.410622,8.626055],[123.411616,8.627049],[123.411868,8.628192],[123.412843,8.629084],[123.41613,8.628458],[123.423286,8.630546],[123.423868,8.630471],[123.423972,8.631245],[123.42452,8.63189],[123.425094,8.632096],[123.426549,8.632247],[123.427026,8.632482],[123.427181,8.633024],[123.426763,8.633488],[123.426137,8.633798],[123.42502,8.633757],[123.423797,8.634136],[123.423532,8.634691],[123.42361,8.635539],[123.42347,8.637003],[123.423189,8.637759],[123.422597,8.638067]]]}},{"type":"Feature","properties":{"name":"Potungan","pcode":"PH0907201032"},"geometry":{"type":"Polygon","coordinates":[[[123.492554,8.554992],[123.492061,8.555083],[123.491015,8.554355],[123.490761,8.553951],[123.490474,8.552342],[123.48967,8.551424],[123.488693,8.55107],[123.48814,8.551267],[123.487755,8.552092],[123.487772,8.553175],[123.487872,8.553917],[123.487565,8.55458],[123.486962,8.554888],[123.486481,8.554868],[123.485945,8.554616],[123.485811,8.554135],[123.48558,8.553693],[123.4849,8.553673],[123.48421,8.553912],[123.483382,8.554367],[123.482371,8.554683],[123.481713,8.554755],[123.480538,8.554234],[123.480138,8.553766],[123.480323,8.553474],[123.480854,8.553337],[123.481317,8.553064],[123.481792,8.552543],[123.481778,8.551875],[123.481918,8.551278],[123.481973,8.54844],[123.481819,8.547693],[123.481348,8.547358],[123.480987,8.546965],[123.480814,8.546411],[123.480803,8.545653],[123.481,8.544769],[123.481617,8.54308],[123.482523,8.541451],[123.482631,8.540648],[123.482527,8.540475],[123.483122,8.540424],[123.483426,8.540158],[123.483696,8.539743],[123.483803,8.538528],[123.483762,8.537851],[123.483371,8.536472],[123.484051,8.535149],[123.484901,8.534893],[123.485726,8.535081],[123.486549,8.535436],[123.487342,8.536297],[123.487523,8.538214],[123.48769,8.538952],[123.488129,8.539459],[123.488852,8.539596],[123.489342,8.539111],[123.490019,8.537994],[123.490083,8.53755],[123.490101,8.534887],[123.490206,8.53433],[123.490643,8.533885],[123.491341,8.533721],[123.49192,8.533859],[123.492155,8.534404],[123.492247,8.535168],[123.492519,8.536012],[123.493023,8.536759],[123.493625,8.537295],[123.493773,8.537801],[123.493711,8.53849],[123.493899,8.53909],[123.494923,8.539439],[123.495312,8.539136],[123.49565,8.538602],[123.496523,8.537838],[123.496434,8.537309],[123.496159,8.536755],[123.4964,8.536228],[123.497148,8.536076],[123.4978,8.536163],[123.498664,8.536092],[123.49946,8.53628],[123.499951,8.536568],[123.50035,8.537038],[123.50036,8.537529],[123.50014,8.537942],[123.500071,8.538399],[123.500346,8.538722],[123.500241,8.539161],[123.500218,8.539846],[123.500561,8.540484],[123.50101,8.540979],[123.501496,8.540828],[123.502288,8.540002],[123.502408,8.539001],[123.502664,8.538526],[123.503141,8.538305],[123.503954,8.537668],[123.506557,8.537496],[123.506133,8.536096],[123.505323,8.535393],[123.506973,8.534432],[123.508003,8.533145],[123.508662,8.534628],[123.510218,8.536358],[123.511661,8.536201],[123.513179,8.537458],[123.513355,8.537734],[123.513706,8.53797],[123.514115,8.537995],[123.514524,8.538268],[123.515018,8.538745],[123.515274,8.540049],[123.5153,8.542325],[123.512145,8.543832],[123.510843,8.54467],[123.51026,8.544731],[123.509457,8.545035],[123.509018,8.544965],[123.508474,8.544755],[123.508346,8.545577],[123.508843,8.546489],[123.509093,8.547407],[123.508437,8.548795],[123.507531,8.548968],[123.507037,8.548484],[123.506448,8.548076],[123.505978,8.548416],[123.505031,8.548142],[123.504122,8.547532],[123.503761,8.547176],[123.503697,8.546421],[123.503258,8.545954],[123.502978,8.546406],[123.502341,8.546827],[123.501498,8.545795],[123.500039,8.546065],[123.499721,8.546832],[123.49982,8.547777],[123.499222,8.54883],[123.497993,8.549238],[123.496986,8.549236],[123.49619,8.549501],[123.495439,8.550126],[123.494782,8.550916],[123.49454,8.551554],[123.495305,8.552057],[123.495573,8.552579],[123.495805,8.553849],[123.495,8.554662],[123.494527,8.554213],[123.494342,8.553127],[123.493201,8.553021],[123.492616,8.553729],[123.49272,8.554424],[123.492554,8.554992]]]}},{"type":"Feature","properties":{"name":"San Francisco","pcode":"PH0907201033"},"geometry":{"type":"Polygon","coordinates":[[[123.499185,8.451082],[123.498025,8.451554],[123.496838,8.451472],[123.495016,8.449658],[123.493936,8.448747],[123.492581,8.448785],[123.491892,8.449778],[123.4911,8.450706],[123.489993,8.450272],[123.489085,8.448775],[123.487969,8.447898],[123.486389,8.447768],[123.485157,8.448384],[123.483494,8.44779],[123.482076,8.446984],[123.484207,8.441892],[123.48687,8.437235],[123.486578,8.436131],[123.487156,8.435773],[123.487444,8.435693],[123.487442,8.436006],[123.487803,8.436302],[123.488263,8.435909],[123.48785,8.43518],[123.487719,8.43465],[123.488051,8.434397],[123.488391,8.434521],[123.488446,8.4349],[123.488391,8.435203],[123.489331,8.435171],[123.489983,8.434894],[123.490088,8.434606],[123.489747,8.434112],[123.489073,8.43362],[123.488523,8.433582],[123.488132,8.433382],[123.488136,8.43301],[123.488707,8.432871],[123.489232,8.43309],[123.489523,8.431794],[123.490153,8.431996],[123.490528,8.43149],[123.490114,8.42998],[123.489625,8.429634],[123.489656,8.429168],[123.490087,8.429021],[123.490172,8.428776],[123.490579,8.428641],[123.490863,8.428296],[123.491001,8.42793],[123.492044,8.426855],[123.4928,8.424679],[123.494452,8.414834],[123.502888,8.414496],[123.502877,8.432576],[123.503901,8.432515],[123.505399,8.432576],[123.506076,8.43393],[123.505337,8.434914],[123.503307,8.434545],[123.502323,8.435283],[123.501708,8.436883],[123.502938,8.438667],[123.504045,8.439098],[123.504045,8.44039],[123.502877,8.442789],[123.501769,8.442912],[123.500662,8.443158],[123.499677,8.445804],[123.501465,8.447783],[123.502946,8.44978],[123.501218,8.449788],[123.499941,8.45032],[123.499185,8.451082]]]}},{"type":"Feature","properties":{"name":"San Nicolas","pcode":"PH0907201034"},"geometry":{"type":"Polygon","coordinates":[[[123.475917,8.514167],[123.472336,8.518425],[123.459354,8.517767],[123.445281,8.506529],[123.445959,8.506268],[123.446933,8.503986],[123.447311,8.50351],[123.448603,8.502493],[123.449004,8.501432],[123.448864,8.500684],[123.456189,8.490343],[123.470342,8.492436],[123.471218,8.492914],[123.472055,8.492894],[123.472971,8.492665],[123.473668,8.493044],[123.474057,8.493671],[123.47534,8.494542],[123.475796,8.494966],[123.476489,8.513487],[123.475917,8.514167]]]}},{"type":"Feature","properties":{"name":"San Pedro","pcode":"PH0907201035"},"geometry":{"type":"Polygon","coordinates":[[[123.400681,8.630578],[123.400554,8.63077],[123.398889,8.629748],[123.397379,8.629033],[123.397335,8.629095],[123.397197,8.629032],[123.397185,8.628863],[123.395362,8.628271],[123.395112,8.627994],[123.394543,8.62782],[123.394471,8.627628],[123.39427,8.627659],[123.394201,8.627555],[123.394105,8.627561],[123.393993,8.62776],[123.393862,8.627692],[123.393873,8.627464],[123.393458,8.627499],[123.39309,8.627037],[123.392959,8.627028],[123.393012,8.626943],[123.392918,8.626831],[123.393074,8.626603],[123.393096,8.626417],[123.392989,8.626445],[123.392884,8.62625],[123.392713,8.626198],[123.392888,8.626034],[123.393047,8.626003],[123.39327,8.626221],[123.39339,8.626051],[123.393823,8.625975],[123.393786,8.625868],[123.393861,8.625743],[123.393625,8.625399],[123.393028,8.624865],[123.393023,8.624727],[123.392526,8.624548],[123.39208,8.624563],[123.392064,8.624671],[123.391823,8.624693],[123.391866,8.624942],[123.391792,8.625045],[123.391683,8.625019],[123.391601,8.625092],[123.391467,8.625641],[123.391309,8.62563],[123.39121,8.625722],[123.391145,8.62567],[123.391129,8.625791],[123.390917,8.625628],[123.390839,8.62584],[123.390906,8.625928],[123.390769,8.626004],[123.390637,8.625957],[123.390737,8.626412],[123.390503,8.626376],[123.390381,8.626677],[123.390139,8.626895],[123.390019,8.626889],[123.390026,8.626978],[123.389912,8.627042],[123.389822,8.626967],[123.38927,8.62726],[123.389282,8.627395],[123.389128,8.627566],[123.389207,8.627722],[123.389124,8.628046],[123.389201,8.628413],[123.389311,8.628469],[123.389266,8.628592],[123.389439,8.628732],[123.389491,8.628964],[123.388887,8.62901],[123.387005,8.629404],[123.386903,8.629508],[123.386956,8.629702],[123.386806,8.629852],[123.386841,8.62998],[123.386722,8.630104],[123.38673,8.63023],[123.386156,8.630703],[123.385986,8.630532],[123.384941,8.622445],[123.384429,8.620977],[123.38859,8.619656],[123.393663,8.619077],[123.393956,8.619377],[123.394458,8.620254],[123.394833,8.620489],[123.395144,8.620552],[123.396695,8.619256],[123.403641,8.620419],[123.405536,8.618758],[123.405446,8.625286],[123.402892,8.625551],[123.40135,8.628563],[123.400681,8.630578]]]}},{"type":"Feature","properties":{"name":"San Vicente","pcode":"PH0907201036"},"geometry":{"type":"Polygon","coordinates":[[[123.370603,8.643524],[123.369306,8.643209],[123.368933,8.642837],[123.368722,8.64316],[123.368537,8.643203],[123.368259,8.642818],[123.36833,8.64185],[123.368732,8.641404],[123.369057,8.641417],[123.367939,8.630264],[123.370983,8.630559],[123.37518,8.628901],[123.378938,8.6267],[123.384941,8.622445],[123.385986,8.630532],[123.386156,8.630703],[123.385495,8.631407],[123.385476,8.63169],[123.385312,8.631947],[123.385147,8.632029],[123.385178,8.632204],[123.384953,8.632265],[123.384754,8.632802],[123.384531,8.633128],[123.384501,8.63334],[123.384605,8.63348],[123.38446,8.633604],[123.384112,8.633609],[123.38396,8.633727],[123.383738,8.634021],[123.383642,8.634444],[123.383546,8.634427],[123.383374,8.634608],[123.383223,8.634638],[123.383385,8.634855],[123.382797,8.635359],[123.383327,8.635673],[123.382494,8.636893],[123.383359,8.637435],[123.38328,8.637586],[123.382439,8.637064],[123.382365,8.637165],[123.382204,8.63707],[123.382228,8.637006],[123.381997,8.636919],[123.381823,8.637059],[123.381639,8.637075],[123.380673,8.636544],[123.379772,8.636701],[123.37955,8.636918],[123.379632,8.637221],[123.379526,8.637158],[123.37938,8.637249],[123.379394,8.63739],[123.379246,8.637409],[123.379066,8.637915],[123.377951,8.638032],[123.377833,8.638138],[123.377769,8.638456],[123.377613,8.638519],[123.377465,8.638847],[123.376977,8.638875],[123.37666,8.639195],[123.376607,8.63939],[123.377005,8.639859],[123.377152,8.640209],[123.377116,8.640474],[123.376941,8.640511],[123.376986,8.640642],[123.37645,8.640574],[123.376147,8.640397],[123.375712,8.640018],[123.375528,8.639631],[123.375355,8.639542],[123.374974,8.639624],[123.374773,8.639564],[123.374561,8.639662],[123.374542,8.639961],[123.374366,8.639981],[123.374318,8.64014],[123.374014,8.640309],[123.373575,8.640178],[123.373435,8.63994],[123.373375,8.639628],[123.373227,8.639629],[123.373154,8.639478],[123.372774,8.639609],[123.372582,8.639814],[123.372647,8.639929],[123.372593,8.640167],[123.372746,8.640432],[123.37266,8.640805],[123.372693,8.641],[123.372412,8.641227],[123.372111,8.641082],[123.37161,8.641172],[123.371221,8.641491],[123.371152,8.64171],[123.371356,8.641876],[123.371411,8.642062],[123.371327,8.642932],[123.371155,8.643162],[123.370943,8.643181],[123.370901,8.643331],[123.370603,8.643524]]]}},{"type":"Feature","properties":{"name":"Sicayab-Bucana","pcode":"PH0907201038"},"geometry":{"type":"MultiPolygon","coordinates":[[[[123.369057,8.641417],[123.368732,8.641404],[123.368723,8.64109],[123.368591,8.640835],[123.368067,8.640592],[123.367901,8.640689],[123.367579,8.640664],[123.367372,8.640818],[123.366923,8.6408],[123.366707,8.640488],[123.366802,8.64029],[123.366778,8.639996],[123.366196,8.639536],[123.365525,8.639503],[123.365293,8.639659],[123.364987,8.639557],[123.364347,8.63951],[123.363862,8.639267],[123.363607,8.638996],[123.362629,8.638633],[123.362036,8.638575],[123.361851,8.638649],[123.36138,8.638443],[123.36126,8.63851],[123.361018,8.638446],[123.3608,8.638315],[123.360293,8.638258],[123.360036,8.638381],[123.359526,8.638131],[123.358998,8.638127],[123.358818,8.63825],[123.358678,8.638138],[123.358426,8.638338],[123.357956,8.638338],[123.357396,8.638142],[123.35718,8.638248],[123.356897,8.638066],[123.356821,8.638108],[123.356583,8.637962],[123.355897,8.637196],[123.355783,8.636951],[123.35582,8.636481],[123.355428,8.636202],[123.355109,8.636091],[123.354951,8.635893],[123.354973,8.635672],[123.35484,8.635601],[123.354323,8.635501],[123.354017,8.635347],[123.353593,8.635349],[123.353417,8.635158],[123.353309,8.635188],[123.35325,8.635307],[123.353223,8.635154],[123.353113,8.635124],[123.353045,8.635353],[123.352697,8.635425],[123.35243,8.635356],[123.352216,8.635542],[123.352044,8.635071],[123.351641,8.634934],[123.351377,8.635031],[123.35101,8.634936],[123.350834,8.635359],[123.350775,8.635362],[123.350609,8.635121],[123.350743,8.634941],[123.350719,8.634721],[123.350319,8.633956],[123.349857,8.633584],[123.349542,8.633457],[123.349465,8.633477],[123.349406,8.633707],[123.349278,8.633677],[123.349257,8.633457],[123.349467,8.633182],[123.349305,8.632865],[123.349354,8.632655],[123.349521,8.632558],[123.349653,8.632675],[123.349811,8.632645],[123.350157,8.632107],[123.350447,8.632086],[123.350669,8.632175],[123.350877,8.631993],[123.351168,8.631417],[123.351387,8.631348],[123.351606,8.631408],[123.35161,8.631215],[123.359735,8.625861],[123.358897,8.631112],[123.367939,8.630264],[123.369057,8.641417]]],[[[123.349514,8.631321],[123.347515,8.63197],[123.347498,8.63186],[123.3495,8.631151],[123.349514,8.631321]]]]}},{"type":"Feature","properties":{"name":"Sigayan","pcode":"PH0907201039"},"geometry":{"type":"Polygon","coordinates":[[[123.502702,8.466274],[123.496412,8.467985],[123.49419,8.467693],[123.491906,8.466821],[123.490554,8.465028],[123.488346,8.463869],[123.483269,8.462848],[123.477778,8.462324],[123.474605,8.463427],[123.472669,8.463207],[123.478441,8.453393],[123.482076,8.446984],[123.483494,8.44779],[123.485157,8.448384],[123.486389,8.447768],[123.487969,8.447898],[123.489085,8.448775],[123.489993,8.450272],[123.4911,8.450706],[123.491892,8.449778],[123.492581,8.448785],[123.493936,8.448747],[123.495016,8.449658],[123.496838,8.451472],[123.498025,8.451554],[123.499185,8.451082],[123.499941,8.45032],[123.501218,8.449788],[123.502946,8.44978],[123.504366,8.451614],[123.506691,8.453432],[123.509829,8.453371],[123.513676,8.455342],[123.512356,8.458792],[123.510741,8.460004],[123.509247,8.460448],[123.507632,8.457541],[123.504766,8.456976],[123.502868,8.457945],[123.503191,8.459237],[123.503151,8.462547],[123.502702,8.466274]]]}},{"type":"Feature","properties":{"name":"Selinog","pcode":"PH0907201040"},"geometry":{"type":"Polygon","coordinates":[[[123.414504,8.860124],[123.413908,8.860215],[123.413311,8.859625],[123.413035,8.858854],[123.412714,8.858446],[123.412347,8.857765],[123.412393,8.85704],[123.412301,8.855679],[123.412852,8.853366],[123.413219,8.852685],[123.413999,8.851597],[123.414458,8.851324],[123.415147,8.851143],[123.416295,8.850191],[123.417121,8.849828],[123.418131,8.849692],[123.419187,8.849419],[123.419875,8.849737],[123.42061,8.850191],[123.420839,8.850826],[123.420656,8.852549],[123.420839,8.853592],[123.421252,8.853865],[123.421436,8.85459],[123.421115,8.856631],[123.420518,8.85704],[123.419069,8.857426],[123.418253,8.857523],[123.417594,8.858199],[123.415956,8.859097],[123.414504,8.860124]]]}},{"type":"Feature","properties":{"name":"Sinonoc","pcode":"PH0907201041"},"geometry":{"type":"Polygon","coordinates":[[[123.451231,8.682532],[123.451079,8.682569],[123.450494,8.68245],[123.448838,8.681832],[123.441711,8.681682],[123.44135,8.681118],[123.439045,8.676506],[123.428159,8.671574],[123.426514,8.667518],[123.426824,8.666109],[123.429039,8.662447],[123.429366,8.661368],[123.429413,8.660181],[123.429852,8.659504],[123.429943,8.658361],[123.430426,8.657652],[123.430769,8.656927],[123.4308,8.655802],[123.430675,8.654738],[123.431294,8.653352],[123.43195,8.651324],[123.431731,8.650592],[123.431193,8.649645],[123.431598,8.64923],[123.432958,8.648913],[123.433782,8.648631],[123.434388,8.648299],[123.434964,8.648223],[123.435431,8.648616],[123.435684,8.649381],[123.435685,8.650146],[123.43587,8.651425],[123.436456,8.651739],[123.437162,8.651622],[123.437633,8.651324],[123.438054,8.651291],[123.438524,8.651655],[123.438726,8.651971],[123.439112,8.65212],[123.439516,8.65242],[123.440071,8.652636],[123.44082,8.653764],[123.441795,8.655027],[123.442266,8.655176],[123.443241,8.655276],[123.443662,8.655442],[123.444099,8.655459],[123.444697,8.655675],[123.444917,8.656157],[123.445482,8.656259],[123.445028,8.659948],[123.451778,8.667402],[123.453879,8.672206],[123.449785,8.675777],[123.450909,8.678737],[123.453112,8.681535],[123.452677,8.682052],[123.452293,8.682026],[123.451495,8.682467],[123.451231,8.682532]]]}},{"type":"Feature","properties":{"name":"Santo Niño","pcode":"PH0907201042"},"geometry":{"type":"Polygon","coordinates":[[[123.428464,8.692457],[123.423791,8.694177],[123.421018,8.692045],[123.402026,8.673439],[123.402126,8.673993],[123.401822,8.673896],[123.401944,8.673701],[123.401828,8.673603],[123.401804,8.673392],[123.401516,8.673207],[123.401415,8.67294],[123.401277,8.672887],[123.401345,8.67279],[123.401535,8.672958],[123.401905,8.672933],[123.402474,8.673309],[123.402595,8.673273],[123.402746,8.673374],[123.40302,8.673404],[123.403076,8.673525],[123.403219,8.673523],[123.40328,8.673611],[123.403613,8.673633],[123.404308,8.67309],[123.404373,8.672954],[123.404324,8.672862],[123.4044,8.67282],[123.404558,8.672851],[123.404601,8.672963],[123.404857,8.67313],[123.405195,8.673177],[123.405606,8.673618],[123.406197,8.67344],[123.406337,8.673323],[123.406452,8.673437],[123.40664,8.673352],[123.406772,8.673445],[123.40706,8.673438],[123.40724,8.673718],[123.407237,8.673899],[123.407621,8.674254],[123.407766,8.67427],[123.407883,8.674646],[123.408128,8.674904],[123.408437,8.674723],[123.408571,8.674789],[123.408815,8.674766],[123.408907,8.674533],[123.408892,8.674274],[123.409012,8.674132],[123.408928,8.673969],[123.409277,8.674123],[123.409377,8.674355],[123.409499,8.674254],[123.409647,8.674427],[123.410152,8.674565],[123.410365,8.674544],[123.410604,8.674337],[123.410534,8.674177],[123.410659,8.673819],[123.410591,8.673729],[123.410663,8.673619],[123.41062,8.673493],[123.410724,8.673267],[123.410923,8.673165],[123.411167,8.673231],[123.411293,8.673028],[123.411869,8.672748],[123.412187,8.672788],[123.412073,8.672034],[123.41196,8.672191],[123.411997,8.67236],[123.411431,8.672605],[123.410939,8.672673],[123.410671,8.672589],[123.410608,8.672673],[123.410554,8.672576],[123.41051,8.672685],[123.410391,8.672519],[123.410009,8.672347],[123.40965,8.671939],[123.409309,8.671834],[123.408925,8.671153],[123.409011,8.670946],[123.409382,8.670809],[123.409547,8.670606],[123.409428,8.670311],[123.408382,8.669705],[123.408038,8.669414],[123.407768,8.669072],[123.407759,8.66895],[123.40714,8.668285],[123.406689,8.668199],[123.40631,8.668296],[123.406188,8.668438],[123.405907,8.668565],[123.405819,8.668395],[123.405743,8.668504],[123.405467,8.668251],[123.405348,8.667959],[123.405724,8.66791],[123.406486,8.668079],[123.406813,8.667961],[123.407375,8.668116],[123.420758,8.672833],[123.428159,8.671574],[123.439045,8.676506],[123.44135,8.681118],[123.441711,8.681682],[123.428464,8.692457]]]}},{"type":"Feature","properties":{"name":"Sulangon","pcode":"PH0907201043"},"geometry":{"type":"Polygon","coordinates":[[[123.423868,8.630471],[123.423286,8.630546],[123.41613,8.628458],[123.412843,8.629084],[123.411868,8.628192],[123.411616,8.627049],[123.410622,8.626055],[123.407758,8.625958],[123.405446,8.625286],[123.405536,8.618758],[123.408031,8.616991],[123.409855,8.615435],[123.411911,8.606113],[123.409466,8.60167],[123.40537,8.597578],[123.408692,8.593953],[123.410621,8.595303],[123.411841,8.595443],[123.412621,8.595697],[123.413396,8.595739],[123.414771,8.596215],[123.416387,8.597483],[123.41794,8.599574],[123.420476,8.602553],[123.421458,8.60348],[123.421981,8.606576],[123.421981,8.607402],[123.422148,8.6074],[123.422139,8.608012],[123.431886,8.611708],[123.431697,8.611812],[123.431587,8.612124],[123.430309,8.613878],[123.427177,8.615391],[123.431055,8.617442],[123.425934,8.623022],[123.425604,8.623542],[123.424985,8.623956],[123.425157,8.624622],[123.426006,8.62619],[123.426528,8.626732],[123.426971,8.627015],[123.427076,8.627402],[123.426581,8.627557],[123.426163,8.627299],[123.425641,8.627196],[123.425119,8.627351],[123.424851,8.628848],[123.424058,8.629646],[123.423868,8.630471]]]}},{"type":"Feature","properties":{"name":"Tag-ulo","pcode":"PH0907201044"},"geometry":{"type":"Polygon","coordinates":[[[123.389489,8.727539],[123.38898,8.727308],[123.388869,8.727099],[123.388894,8.726974],[123.388744,8.726891],[123.386127,8.726721],[123.383823,8.726777],[123.382566,8.726481],[123.381059,8.726258],[123.38045,8.726269],[123.380155,8.726524],[123.379945,8.726843],[123.3796,8.72687],[123.379363,8.72669],[123.379173,8.726316],[123.379176,8.726145],[123.379064,8.72614],[123.379007,8.726334],[123.378767,8.726202],[123.378687,8.726064],[123.378759,8.725976],[123.379561,8.725569],[123.379728,8.725392],[123.379789,8.725274],[123.379697,8.72513],[123.379671,8.724649],[123.379929,8.724519],[123.37983,8.724268],[123.379868,8.72414],[123.379955,8.724117],[123.38008,8.724265],[123.38013,8.724113],[123.379912,8.723971],[123.380323,8.723747],[123.380479,8.723426],[123.380559,8.723015],[123.380189,8.722483],[123.380184,8.722253],[123.380278,8.722011],[123.380585,8.721853],[123.380476,8.721632],[123.380562,8.721441],[123.380533,8.721245],[123.380707,8.72088],[123.380505,8.720669],[123.380618,8.7201],[123.380461,8.719931],[123.3803,8.719901],[123.380426,8.719702],[123.380291,8.719396],[123.380534,8.719358],[123.380668,8.719171],[123.380552,8.718841],[123.380681,8.718739],[123.380552,8.718554],[123.380605,8.718385],[123.380918,8.718392],[123.381197,8.718569],[123.381226,8.718517],[123.381174,8.718331],[123.38078,8.718259],[123.380551,8.718114],[123.380418,8.717853],[123.38037,8.716951],[123.380215,8.716062],[123.380051,8.7154],[123.379749,8.71487],[123.379846,8.714676],[123.37975,8.714446],[123.3799,8.714063],[123.379992,8.714022],[123.379847,8.714239],[123.380156,8.714241],[123.384835,8.713362],[123.389524,8.711753],[123.395578,8.725877],[123.395258,8.725921],[123.39418,8.726327],[123.39307,8.726488],[123.391624,8.727023],[123.390896,8.727147],[123.389489,8.727539]]]}},{"type":"Feature","properties":{"name":"Taguilon","pcode":"PH0907201045"},"geometry":{"type":"Polygon","coordinates":[[[123.409723,8.705776],[123.399726,8.71513],[123.389524,8.711753],[123.387667,8.705578],[123.386888,8.703833],[123.386884,8.70308],[123.38669,8.702751],[123.387698,8.701715],[123.388172,8.701411],[123.388454,8.701348],[123.388736,8.701575],[123.389106,8.701379],[123.389868,8.700699],[123.389917,8.700602],[123.389781,8.700607],[123.389753,8.700497],[123.389849,8.70028],[123.38997,8.700139],[123.390095,8.700171],[123.390212,8.700091],[123.390262,8.699969],[123.390051,8.699676],[123.390088,8.699444],[123.389937,8.699253],[123.389838,8.699257],[123.389803,8.698984],[123.389953,8.698958],[123.389978,8.698817],[123.390143,8.698833],[123.390397,8.698521],[123.390589,8.697987],[123.390579,8.697427],[123.39021,8.697111],[123.389816,8.697105],[123.389546,8.697014],[123.389441,8.696898],[123.38932,8.695674],[123.388933,8.69516],[123.388946,8.695056],[123.388803,8.695026],[123.38864,8.694794],[123.388754,8.694615],[123.388664,8.694036],[123.388999,8.693757],[123.389354,8.693694],[123.389636,8.694319],[123.390073,8.69464],[123.39041,8.695245],[123.391524,8.696023],[123.393042,8.694779],[123.393418,8.694054],[123.393462,8.693408],[123.393293,8.692891],[123.392955,8.692612],[123.392861,8.692484],[123.392913,8.692429],[123.3928,8.69243],[123.392512,8.692158],[123.392351,8.691503],[123.39146,8.691107],[123.39141,8.69088],[123.391255,8.690676],[123.391423,8.690361],[123.391563,8.69033],[123.391722,8.690505],[123.392034,8.690581],[123.391993,8.690502],[123.392162,8.690478],[123.392411,8.690746],[123.392581,8.690692],[123.392827,8.690455],[123.39284,8.690281],[123.392966,8.690236],[123.392936,8.690029],[123.393096,8.689758],[123.393222,8.689663],[123.39339,8.689705],[123.393551,8.689508],[123.393556,8.689208],[123.393746,8.689089],[123.393948,8.689163],[123.394071,8.688917],[123.394221,8.688888],[123.394349,8.688673],[123.394379,8.687887],[123.394485,8.687821],[123.394478,8.687643],[123.394579,8.687536],[123.394561,8.687357],[123.394364,8.687255],[123.394404,8.687078],[123.394214,8.686966],[123.394346,8.686824],[123.394379,8.686554],[123.39454,8.686459],[123.394597,8.686324],[123.394487,8.686116],[123.394469,8.685831],[123.394538,8.68567],[123.39404,8.685207],[123.394111,8.684996],[123.394237,8.684988],[123.394155,8.684599],[123.393821,8.6839],[123.394044,8.683634],[123.394167,8.683597],[123.394188,8.683747],[123.394302,8.683843],[123.394403,8.684676],[123.394641,8.684881],[123.394669,8.685014],[123.394848,8.685053],[123.39496,8.685351],[123.395606,8.685558],[123.395708,8.685676],[123.395762,8.685632],[123.396054,8.686008],[123.396185,8.686818],[123.396752,8.687988],[123.396768,8.688236],[123.396439,8.688722],[123.396458,8.689143],[123.396053,8.690011],[123.396064,8.690191],[123.395864,8.690406],[123.395468,8.690603],[123.395564,8.690916],[123.395721,8.690918],[123.395808,8.691016],[123.395757,8.691144],[123.395825,8.691295],[123.395676,8.691315],[123.395727,8.691424],[123.395597,8.691524],[123.395607,8.691647],[123.395717,8.691612],[123.395836,8.691717],[123.395627,8.691909],[123.39571,8.692096],[123.395663,8.692155],[123.395922,8.692464],[123.396078,8.692447],[123.396175,8.692526],[123.396198,8.692676],[123.396109,8.692789],[123.396155,8.692903],[123.396288,8.692923],[123.396482,8.693257],[123.39664,8.69337],[123.396652,8.693702],[123.396857,8.693815],[123.3968,8.693917],[123.397033,8.694271],[123.397013,8.694564],[123.396881,8.69474],[123.397075,8.695111],[123.397019,8.695345],[123.396805,8.695535],[123.396856,8.69565],[123.396657,8.696039],[123.396531,8.696186],[123.396376,8.696195],[123.396584,8.696461],[123.396544,8.696628],[123.396694,8.696937],[123.396659,8.697331],[123.397001,8.697778],[123.397157,8.698172],[123.397953,8.697809],[123.398073,8.697673],[123.398145,8.697832],[123.39796,8.697835],[123.397337,8.698142],[123.397382,8.698255],[123.397682,8.6983],[123.398171,8.698703],[123.3985,8.699257],[123.398497,8.699436],[123.398288,8.699695],[123.398209,8.699972],[123.398193,8.700301],[123.39831,8.700423],[123.398164,8.700777],[123.397963,8.700887],[123.398209,8.701036],[123.398397,8.700955],[123.398684,8.701048],[123.398874,8.701234],[123.398906,8.701368],[123.399001,8.701196],[123.39916,8.701284],[123.399203,8.70142],[123.399268,8.701295],[123.399461,8.701331],[123.399481,8.701426],[123.400081,8.701302],[123.400346,8.701362],[123.400938,8.701134],[123.401228,8.701134],[123.401432,8.701407],[123.401925,8.701501],[123.402013,8.701438],[123.40229,8.701463],[123.40229,8.701558],[123.402014,8.70154],[123.401951,8.701661],[123.402075,8.701786],[123.402146,8.70169],[123.402283,8.701756],[123.402269,8.701867],[123.402459,8.702013],[123.402372,8.702022],[123.402365,8.702113],[123.402573,8.70227],[123.403099,8.702131],[123.403068,8.701939],[123.403255,8.701852],[123.403115,8.701707],[123.403325,8.7017],[123.403312,8.70156],[123.403396,8.701484],[123.403006,8.701552],[123.403318,8.70139],[123.403193,8.701367],[123.403271,8.70122],[123.403466,8.701215],[123.403311,8.700995],[123.40344,8.700919],[123.403339,8.700832],[123.403355,8.700738],[123.403123,8.700608],[123.403344,8.700315],[123.403276,8.700091],[123.403334,8.699905],[123.403227,8.699804],[123.403285,8.699739],[123.403179,8.699469],[123.403084,8.699431],[123.402996,8.699122],[123.402825,8.699088],[123.402727,8.698918],[123.402668,8.698695],[123.402812,8.698526],[123.402624,8.698417],[123.402645,8.698063],[123.402347,8.69777],[123.402354,8.697574],[123.40228,8.697529],[123.40258,8.696999],[123.402272,8.696523],[123.402214,8.696868],[123.402125,8.696866],[123.402138,8.696426],[123.402349,8.696406],[123.402622,8.696115],[123.402798,8.696105],[123.403202,8.69638],[123.403331,8.696377],[123.40336,8.696527],[123.403697,8.696415],[123.403912,8.696568],[123.40411,8.696403],[123.404125,8.696244],[123.404491,8.696228],[123.404789,8.695862],[123.405006,8.69601],[123.405076,8.696175],[123.405202,8.69606],[123.405069,8.695953],[123.405046,8.695698],[123.405195,8.695642],[123.405288,8.695772],[123.405344,8.695701],[123.405496,8.695713],[123.405805,8.695362],[123.405678,8.695291],[123.405687,8.695127],[123.406037,8.69505],[123.406346,8.694516],[123.406233,8.694405],[123.406188,8.694113],[123.40657,8.693466],[123.406427,8.693448],[123.406205,8.693223],[123.406101,8.692778],[123.40624,8.692778],[123.406331,8.69266],[123.406233,8.692581],[123.406283,8.692504],[123.406203,8.692327],[123.406364,8.692385],[123.406416,8.692162],[123.406295,8.692101],[123.406446,8.691947],[123.406406,8.691867],[123.406006,8.691822],[123.405953,8.691535],[123.405832,8.691359],[123.406216,8.691026],[123.406312,8.691036],[123.406362,8.691156],[123.406412,8.691046],[123.406516,8.69108],[123.406438,8.690981],[123.406559,8.690913],[123.406654,8.691065],[123.406665,8.690923],[123.406772,8.690813],[123.406884,8.690839],[123.406964,8.691056],[123.407104,8.690728],[123.406993,8.690728],[123.406946,8.690446],[123.406659,8.690215],[123.406666,8.69011],[123.406768,8.69005],[123.406625,8.689983],[123.40669,8.689846],[123.406837,8.689781],[123.406765,8.68966],[123.406853,8.68941],[123.406972,8.689393],[123.407305,8.688821],[123.40744,8.688876],[123.407542,8.688725],[123.407497,8.688689],[123.407386,8.688788],[123.407297,8.688722],[123.407239,8.688597],[123.407288,8.688292],[123.407046,8.688629],[123.406824,8.688599],[123.406772,8.688453],[123.406862,8.688414],[123.406826,8.688361],[123.406669,8.688419],[123.406574,8.68835],[123.406546,8.688516],[123.406428,8.688578],[123.406319,8.688381],[123.406262,8.68846],[123.406152,8.688444],[123.405864,8.688277],[123.405882,8.688174],[123.405572,8.688164],[123.405562,8.688039],[123.405313,8.688041],[123.405259,8.687936],[123.404736,8.687656],[123.404349,8.687666],[123.404227,8.687903],[123.404027,8.687623],[123.403989,8.687904],[123.403907,8.687966],[123.403788,8.687757],[123.40361,8.687648],[123.403653,8.68749],[123.403416,8.687362],[123.403145,8.687376],[123.402504,8.686834],[123.402062,8.686728],[123.401644,8.686849],[123.401457,8.686711],[123.401073,8.68661],[123.401082,8.686538],[123.400846,8.686436],[123.400416,8.686039],[123.400292,8.685779],[123.399977,8.685546],[123.399636,8.685417],[123.399569,8.685471],[123.39943,8.685268],[123.399256,8.685274],[123.39923,8.685202],[123.399156,8.685253],[123.398994,8.685137],[123.398975,8.684739],[123.399089,8.684675],[123.399102,8.684555],[123.39922,8.68454],[123.399221,8.684123],[123.399313,8.683891],[123.399206,8.683852],[123.399189,8.683748],[123.399157,8.683811],[123.399091,8.683776],[123.39905,8.683569],[123.399149,8.683479],[123.399145,8.683265],[123.398979,8.682974],[123.398895,8.682983],[123.398908,8.6825],[123.399071,8.682323],[123.398988,8.682215],[123.398829,8.682284],[123.398719,8.682135],[123.398531,8.682326],[123.398162,8.681894],[123.398135,8.681736],[123.398356,8.681723],[123.398348,8.681602],[123.398423,8.681643],[123.398474,8.681494],[123.39875,8.681699],[123.398898,8.681327],[123.399104,8.681323],[123.399222,8.681148],[123.399267,8.680831],[123.399148,8.680687],[123.399257,8.680368],[123.399093,8.680181],[123.398939,8.679214],[123.398786,8.678785],[123.398855,8.678531],[123.398748,8.678233],[123.398961,8.678079],[123.398986,8.677889],[123.398837,8.677658],[123.398583,8.677618],[123.398196,8.677406],[123.397831,8.67688],[123.397501,8.676188],[123.397552,8.675896],[123.397484,8.675551],[123.397568,8.675478],[123.397712,8.675532],[123.397743,8.675417],[123.398214,8.674989],[123.398432,8.675058],[123.399324,8.674877],[123.399891,8.675119],[123.400168,8.675411],[123.400262,8.675642],[123.400766,8.67596],[123.401358,8.676236],[123.401698,8.67622],[123.402047,8.67597],[123.402287,8.675466],[123.402067,8.675138],[123.402158,8.674928],[123.402063,8.674659],[123.401823,8.674365],[123.401822,8.673896],[123.402126,8.673993],[123.402026,8.673439],[123.41888,8.690007],[123.415423,8.700996],[123.409723,8.705776]]]}},{"type":"Feature","properties":{"name":"Kauswagan (Talisay)","pcode":"PH0907201046"},"geometry":{"type":"Polygon","coordinates":[[[123.473006,8.680446],[123.471523,8.680486],[123.461609,8.672422],[123.454503,8.675876],[123.449785,8.675777],[123.453879,8.672206],[123.451778,8.667402],[123.455113,8.666861],[123.462122,8.655585],[123.46996,8.661787],[123.476536,8.670631],[123.479421,8.674919],[123.473006,8.680446]]]}},{"type":"Feature","properties":{"name":"Tamion","pcode":"PH0907201047"},"geometry":{"type":"Polygon","coordinates":[[[123.421997,8.603559],[123.421998,8.603733],[123.421458,8.60348],[123.420476,8.602553],[123.41794,8.599574],[123.416387,8.597483],[123.414771,8.596215],[123.413396,8.595739],[123.412621,8.595697],[123.411841,8.595443],[123.410621,8.595303],[123.410072,8.594979],[123.409762,8.594387],[123.409522,8.593711],[123.409353,8.592387],[123.409325,8.590331],[123.409522,8.589147],[123.410494,8.587851],[123.411178,8.587157],[123.41082,8.583073],[123.410877,8.581026],[123.411578,8.579417],[123.412597,8.577767],[123.421532,8.579384],[123.429591,8.579533],[123.430019,8.580504],[123.430095,8.580759],[123.430041,8.580966],[123.430248,8.584427],[123.430465,8.584792],[123.430585,8.585285],[123.43051,8.585609],[123.430423,8.585647],[123.430274,8.58602],[123.430311,8.58622],[123.430249,8.586332],[123.429813,8.586643],[123.429776,8.586905],[123.429527,8.587291],[123.428929,8.587752],[123.428854,8.587951],[123.428991,8.588486],[123.429402,8.588711],[123.429701,8.589022],[123.429589,8.589557],[123.429688,8.59079],[123.429452,8.591363],[123.429439,8.591886],[123.429207,8.592555],[123.429208,8.593303],[123.428951,8.594485],[123.429058,8.594766],[123.429015,8.595129],[123.429144,8.595429],[123.429403,8.595643],[123.429401,8.595899],[123.429315,8.596053],[123.42938,8.597082],[123.429165,8.597467],[123.428885,8.597659],[123.42792,8.597531],[123.427341,8.597639],[123.425969,8.597552],[123.425648,8.597639],[123.425516,8.597854],[123.425367,8.598454],[123.42511,8.598627],[123.425303,8.59914],[123.424853,8.59959],[123.42434,8.599805],[123.423801,8.599806],[123.423307,8.60002],[123.422707,8.599957],[123.422513,8.600021],[123.422341,8.599826],[123.422255,8.600128],[123.422341,8.600235],[123.422128,8.600642],[123.421634,8.600986],[123.421355,8.601051],[123.421248,8.601222],[123.42101,8.601309],[123.420626,8.601737],[123.42189,8.602918],[123.421826,8.603088],[123.421997,8.603559]]]}},{"type":"Feature","properties":{"name":"Bagting (Pob.)","pcode":"PH0907201048"},"geometry":{"type":"Polygon","coordinates":[[[123.421827,8.662589],[123.421465,8.663019],[123.421373,8.662946],[123.421739,8.66254],[123.421631,8.662467],[123.421418,8.662505],[123.421197,8.662433],[123.420379,8.661123],[123.423151,8.657996],[123.4247,8.659167],[123.421827,8.662589]]]}},{"type":"Feature","properties":{"name":"Banonong (Pob.)","pcode":"PH0907201049"},"geometry":{"type":"Polygon","coordinates":[[[123.425654,8.653302],[123.425298,8.654069],[123.42395,8.653678],[123.424322,8.65254],[123.42307,8.65213],[123.423545,8.650654],[123.42362,8.650335],[123.423583,8.650085],[123.421819,8.647181],[123.419437,8.643599],[123.418339,8.64181],[123.416456,8.639138],[123.414651,8.636444],[123.414466,8.636065],[123.413964,8.635433],[123.414814,8.634168],[123.415781,8.634337],[123.416795,8.633998],[123.417933,8.633859],[123.418557,8.634198],[123.418822,8.634768],[123.41928,8.63698],[123.419524,8.637281],[123.420195,8.637605],[123.421973,8.638098],[123.422597,8.638067],[123.423189,8.637759],[123.42347,8.637003],[123.42361,8.635539],[123.423532,8.634691],[123.423797,8.634136],[123.42502,8.633757],[123.425831,8.633819],[123.425894,8.63425],[123.426128,8.63462],[123.426424,8.634836],[123.426783,8.634913],[123.42736,8.634774],[123.427827,8.634774],[123.427937,8.635221],[123.427609,8.635638],[123.427142,8.635853],[123.427188,8.636131],[123.427422,8.636455],[123.427984,8.636963],[123.428093,8.637719],[123.428389,8.637888],[123.428545,8.638443],[123.428561,8.638952],[123.427922,8.639523],[123.427657,8.639954],[123.427516,8.640479],[123.427595,8.641034],[123.428085,8.64129],[123.428896,8.640457],[123.429223,8.640288],[123.429613,8.640349],[123.429863,8.64055],[123.430159,8.641089],[123.430518,8.641243],[123.430798,8.641212],[123.43111,8.641336],[123.431298,8.641675],[123.431329,8.642107],[123.431188,8.642554],[123.431126,8.64317],[123.430783,8.643463],[123.430581,8.644096],[123.429577,8.64568],[123.428937,8.645865],[123.427823,8.645861],[123.427137,8.646015],[123.425145,8.648253],[123.425317,8.648746],[123.428191,8.649475],[123.427756,8.649588],[123.42754,8.649832],[123.426415,8.650299],[123.42673,8.651159],[123.425654,8.653302]]]}},{"type":"Feature","properties":{"name":"Cawa-cawa (Pob.)","pcode":"PH0907201050"},"geometry":{"type":"Polygon","coordinates":[[[123.426864,8.663652],[123.422684,8.664315],[123.421465,8.663019],[123.4247,8.659167],[123.426297,8.660357],[123.426934,8.660723],[123.427811,8.661954],[123.429039,8.662447],[123.428314,8.663575],[123.426864,8.663652]]]}},{"type":"Feature","properties":{"name":"Dawo (Pob.)","pcode":"PH0907201051"},"geometry":{"type":"Polygon","coordinates":[[[123.424322,8.65254],[123.42395,8.653678],[123.417539,8.651689],[123.417465,8.651277],[123.415668,8.64665],[123.41506,8.645572],[123.414002,8.644208],[123.412276,8.642308],[123.411779,8.641145],[123.411432,8.64136],[123.411325,8.641211],[123.411081,8.641384],[123.411149,8.641468],[123.411082,8.641534],[123.411033,8.641458],[123.411695,8.640898],[123.411477,8.640186],[123.4113,8.63989],[123.411325,8.639572],[123.412345,8.638336],[123.412595,8.638284],[123.412611,8.638019],[123.412745,8.637807],[123.414278,8.635939],[123.413903,8.635479],[123.413964,8.635433],[123.414466,8.636065],[123.414651,8.636444],[123.416456,8.639138],[123.418339,8.64181],[123.419437,8.643599],[123.421819,8.647181],[123.423583,8.650085],[123.42362,8.650335],[123.423545,8.650654],[123.42307,8.65213],[123.424322,8.65254]]]}},{"type":"Feature","properties":{"name":"Matagobtob Pob. (Talisay)","pcode":"PH0907201052"},"geometry":{"type":"Polygon","coordinates":[[[123.428159,8.671574],[123.420758,8.672833],[123.406813,8.667961],[123.406807,8.667494],[123.406879,8.667471],[123.407121,8.667698],[123.407401,8.667817],[123.407468,8.667691],[123.408155,8.667431],[123.408358,8.667189],[123.408666,8.66713],[123.408785,8.666806],[123.409017,8.666688],[123.409241,8.666851],[123.409399,8.666867],[123.409688,8.667167],[123.409901,8.667745],[123.410108,8.667717],[123.410871,8.667363],[123.411283,8.666881],[123.411681,8.666658],[123.411983,8.666371],[123.412234,8.666345],[123.412457,8.666094],[123.413124,8.665881],[123.413198,8.665949],[123.413248,8.666321],[123.413055,8.66659],[123.413064,8.666868],[123.412783,8.667349],[123.412862,8.667307],[123.412905,8.667373],[123.412824,8.667452],[123.412877,8.667561],[123.413039,8.667563],[123.413092,8.667666],[123.413239,8.667636],[123.413228,8.667723],[123.413563,8.667718],[123.413957,8.667597],[123.414096,8.66773],[123.414329,8.667677],[123.414476,8.667876],[123.414694,8.667665],[123.41544,8.667439],[123.41559,8.667177],[123.416287,8.666877],[123.417257,8.666868],[123.417765,8.666747],[123.417988,8.666793],[123.417999,8.666856],[123.41813,8.666797],[123.41838,8.66702],[123.4184,8.666859],[123.418618,8.666699],[123.418747,8.666364],[123.418871,8.666251],[123.418884,8.665999],[123.419223,8.665466],[123.419186,8.665395],[123.419333,8.665297],[123.419383,8.66509],[123.419498,8.665064],[123.419619,8.66468],[123.419699,8.664678],[123.419943,8.663717],[123.420116,8.66343],[123.420271,8.663311],[123.420525,8.6634],[123.421018,8.663341],[123.421373,8.662946],[123.422684,8.664315],[123.426864,8.663652],[123.428314,8.663575],[123.426824,8.666109],[123.426514,8.667518],[123.428159,8.671574]]]}},{"type":"Feature","properties":{"name":"Linabo (Pob.)","pcode":"PH0907201053"},"geometry":{"type":"Polygon","coordinates":[[[123.429366,8.661368],[123.429039,8.662447],[123.427811,8.661954],[123.426934,8.660723],[123.426297,8.660357],[123.4247,8.659167],[123.426471,8.656989],[123.428594,8.656376],[123.430675,8.654738],[123.4308,8.655802],[123.430769,8.656927],[123.430426,8.657652],[123.429943,8.658361],[123.429852,8.659504],[123.429413,8.660181],[123.429366,8.661368]]]}},{"type":"Feature","properties":{"name":"Potol (Pob.)","pcode":"PH0907201054"},"geometry":{"type":"Polygon","coordinates":[[[123.425285,8.65845],[123.4247,8.659167],[123.423151,8.657996],[123.424915,8.65599],[123.423824,8.655167],[123.424151,8.653941],[123.42395,8.653678],[123.425298,8.654069],[123.42673,8.651159],[123.426415,8.650299],[123.42754,8.649832],[123.427756,8.649588],[123.428191,8.649475],[123.428528,8.650933],[123.428385,8.651905],[123.42943,8.653539],[123.430675,8.654738],[123.428594,8.656376],[123.426471,8.656989],[123.425285,8.65845]]]}},{"type":"Feature","properties":{"name":"Santa Cruz (Pob.)","pcode":"PH0907201055"},"geometry":{"type":"Polygon","coordinates":[[[123.420709,8.660733],[123.420379,8.661123],[123.420153,8.661036],[123.420005,8.661069],[123.419849,8.660817],[123.419852,8.660576],[123.420053,8.66033],[123.419955,8.660181],[123.420061,8.659968],[123.41989,8.660007],[123.419788,8.659888],[123.419603,8.658731],[123.419174,8.657243],[123.419078,8.656577],[123.418951,8.656532],[123.419028,8.6566],[123.418956,8.656602],[123.418818,8.656445],[123.418881,8.656223],[123.418894,8.656308],[123.418994,8.656195],[123.418847,8.655922],[123.418802,8.655319],[123.418655,8.65508],[123.41845,8.654262],[123.418239,8.65386],[123.418211,8.653517],[123.418065,8.653269],[123.418075,8.653056],[123.417919,8.652859],[123.417539,8.651689],[123.42395,8.653678],[123.424151,8.653941],[123.423824,8.655167],[123.424915,8.65599],[123.420709,8.660733]]]}}]}